SEARCHVAL,BLK_NO,ROAD_NAME,BUILDING,ADDRESS,POSTAL,X,Y,LATITUDE,LONGITUDE,LONGTITUDE,address
CHIJ SAINT JOSEPH'S CONVENT,62,SENGKANG EAST WAY,CHIJ SAINT JOSEPH'S CONVENT,62 SENGKANG EAST WAY CHIJ SAINT JOSEPH'S CONVENT SINGAPORE 548595,548595,35695.0897989292,41518.518049065,1.39175222260369,103.902464991543,103.902464991543,CHIJ St. Joseph's Convent
WOODLANDS RING SECONDARY SCHOOL,10,WOODLANDS RING ROAD,WOODLANDS RING SECONDARY SCHOOL,10 WOODLANDS RING ROAD WOODLANDS RING SECONDARY SCHOOL SINGAPORE 738239,738239,24308.6728630271,46465.1933193207,1.43648894729939,103.800148469692,103.800148469692,Woodlands Ring Secondary School
RIVER VALLEY PRIMARY SCHOOL,2,RIVER VALLEY GREEN,RIVER VALLEY PRIMARY SCHOOL,2 RIVER VALLEY GREEN RIVER VALLEY PRIMARY SCHOOL SINGAPORE 237993,237993,28277.8483209386,30734.1542524323,1.2942232846169,103.835815165829,103.835815165829,River Valley Primary School
COMPASSVALE PRIMARY SCHOOL,21,COMPASSVALE STREET,COMPASSVALE PRIMARY SCHOOL,21 COMPASSVALE STREET COMPASSVALE PRIMARY SCHOOL SINGAPORE 545091,545091,35177.2900137762,41816.2900234833,1.39444529636566,103.897812229905,103.897812229905,Compassvale Primary School
WESTWOOD SECONDARY SCHOOL,11,JURONG WEST STREET 25,WESTWOOD SECONDARY SCHOOL,11 JURONG WEST STREET 25 WESTWOOD SECONDARY SCHOOL SINGAPORE 648350,648350,13360.360080882,37315.2708597258,1.35373698510994,103.701772102139,103.701772102139,Westwood Secondary School
PUNGGOL COVE PRIMARY SCHOOL,52,SUMANG WALK,PUNGGOL COVE PRIMARY SCHOOL,52 SUMANG WALK PUNGGOL COVE PRIMARY SCHOOL SINGAPORE 828674,828674,35287.5991076548,43713.0898242556,1.41159923273069,103.898803921164,103.898803921164,Punggol Cove Primary School
POI CHING SCHOOL,21,TAMPINES STREET 71,POI CHING SCHOOL,21 TAMPINES STREET 71 POI CHING SCHOOL SINGAPORE 529067,529067,39343.403805064,37747.9291978516,1.35765122315688,103.935246477199,103.935246477199,Poi Ching School
NANYANG PRIMARY SCHOOL,51,CORONATION ROAD,NANYANG PRIMARY SCHOOL,51 CORONATION ROAD NANYANG PRIMARY SCHOOL SINGAPORE 269460,269460,25011.8029676573,33707.7719583772,1.32111548993736,103.806468059795,103.806468059795,Nanyang Primary School
CANTONMENT PRIMARY SCHOOL,1,CANTONMENT CLOSE,CANTONMENT PRIMARY SCHOOL,1 CANTONMENT CLOSE CANTONMENT PRIMARY SCHOOL SINGAPORE 088256,088256,28739.4305021614,28660.7930697445,1.27547252623201,103.839962631748,103.839962631748,Cantonment Primary School
PAYA LEBAR METHODIST GIRLS' SCHOOL (SECONDARY),296,LORONG AH SOO,PAYA LEBAR METHODIST GIRLS' SCHOOL (SECONDARY),296 LORONG AH SOO PAYA LEBAR METHODIST GIRLS' SCHOOL (SECONDARY) SINGAPORE 536742,536742,33764.9220583495,37008.7061571106,1.35096755912522,103.885120050588,103.885120050588,Paya Lebar Methodist Girls' School (Secondary)
ZHONGHUA SECONDARY SCHOOL,13,SERANGOON AVENUE 3,ZHONGHUA SECONDARY SCHOOL,13 SERANGOON AVENUE 3 ZHONGHUA SECONDARY SCHOOL SINGAPORE 556123,556123,32018.8531237943,36725.5640310161,1.34840720846208,103.869430481414,103.869430481414,Zhonghua Secondary School
PEIRCE SECONDARY SCHOOL,10,SIN MING WALK,PEIRCE SECONDARY SCHOOL,10 SIN MING WALK PEIRCE SECONDARY SCHOOL SINGAPORE 575566,575566,27654.7276661592,38743.7738600355,1.36665944653812,103.83021606804,103.83021606804,Peirce Secondary School
HAIG GIRLS' SCHOOL,51,KOON SENG ROAD,HAIG GIRLS' SCHOOL,51 KOON SENG ROAD HAIG GIRLS' SCHOOL SINGAPORE 427072,427072,35744.037941209,32693.6655622385,1.31194344271383,103.902902557195,103.902902557195,Haig Girls' School
TANJONG KATONG GIRLS' SCHOOL,20,DUNMAN LANE,TANJONG KATONG GIRLS' SCHOOL,20 DUNMAN LANE TANJONG KATONG GIRLS' SCHOOL SINGAPORE 439272,439272,34955.8368231514,32281.1232958212,1.30821274627283,103.895820094229,103.895820094229,Tanjong Katong Girls' School
WEST SPRING PRIMARY SCHOOL,60,BUKIT PANJANG RING ROAD,WEST SPRING PRIMARY SCHOOL,60 BUKIT PANJANG RING ROAD WEST SPRING PRIMARY SCHOOL SINGAPORE 679946,679946,20530.0971989501,41262.9989389312,1.38944145898943,103.766195711835,103.766195711835,West Spring Primary School
CHUA CHU KANG SECONDARY SCHOOL,3,TECK WHYE CRESCENT,CHUA CHU KANG SECONDARY SCHOOL,3 TECK WHYE CRESCENT CHUA CHU KANG SECONDARY SCHOOL SINGAPORE 688845,688845,18936.729485549,40571.8260801956,1.38319029263484,103.751878290333,103.751878290333,Chua Chu Kang Secondary School
NEW TOWN SECONDARY SCHOOL,1020,DOVER ROAD,NEW TOWN SECONDARY SCHOOL,1020 DOVER ROAD NEW TOWN SECONDARY SCHOOL SINGAPORE 139657,139657,21308.1010938296,32453.9625329748,1.30977590011357,103.77318863421,103.77318863421,New Town Secondary School
ELIAS PARK PRIMARY SCHOOL,11,PASIR RIS STREET 52,ELIAS PARK PRIMARY SCHOOL,11 PASIR RIS STREET 52 ELIAS PARK PRIMARY SCHOOL SINGAPORE 518866,518866,40443.0313903531,39612.4369040336,1.37451269377776,103.945128117139,103.945128117139,Elias Park Primary School
SWISS COTTAGE SECONDARY SCHOOL,3,BUKIT BATOK STREET 34,SWISS COTTAGE SECONDARY SCHOOL,3 BUKIT BATOK STREET 34 SWISS COTTAGE SECONDARY SCHOOL SINGAPORE 659322,659322,18771.7135838792,38529.1941047609,1.36471742697475,103.750396136688,103.750396136688,Swiss Cottage Secondary School
HUAMIN PRIMARY SCHOOL,21,YISHUN AVENUE 11,HUAMIN PRIMARY SCHOOL,21 YISHUN AVENUE 11 HUAMIN PRIMARY SCHOOL SINGAPORE 768857,768857,29215.4177919272,45412.9266837817,1.42697284512936,103.844240226564,103.844240226564,Huamin Primary School
CHUNG CHENG HIGH SCHOOL (MAIN),50,GOODMAN ROAD,CHUNG CHENG HIGH SCHOOL (MAIN),50 GOODMAN ROAD CHUNG CHENG HIGH SCHOOL (MAIN) SINGAPORE 439012,439012,34492.1113962689,31935.9858617261,1.30509154753048,103.891653229373,103.891653229373,Chung Cheng High School (Main)
SINGAPORE CHINESE GIRLS' SCHOOL,190,DUNEARN ROAD,SINGAPORE CHINESE GIRLS' SCHOOL,190 DUNEARN ROAD SINGAPORE CHINESE GIRLS' SCHOOL SINGAPORE 309437,309437,27426.4538880838,33654.5249451734,1.3206340835184,103.828164966953,103.828164966953,Singapore Chinese Girls' School
SINGAPORE UNIVERSITY OF SOCIAL SCIENCES,463,CLEMENTI ROAD,SINGAPORE UNIVERSITY OF SOCIAL SCIENCES,463 CLEMENTI ROAD SINGAPORE UNIVERSITY OF SOCIAL SCIENCES SINGAPORE 599494,599494,21599.3524365146,34505.1225733571,1.32832591914825,103.775805241351,103.775805241351,Singapore University of Social Sciences
KENT RIDGE SECONDARY SCHOOL,147,WEST COAST ROAD,KENT RIDGE SECONDARY SCHOOL,147 WEST COAST ROAD KENT RIDGE SECONDARY SCHOOL SINGAPORE 127368,127368,20384.4722389057,31508.7733694967,1.30122773426098,103.764889617566,103.764889617566,Kent Ridge Secondary School
ANDERSON SECONDARY SCHOOL,10,ANG MO KIO STREET 53,ANDERSON SECONDARY SCHOOL,10 ANG MO KIO STREET 53 ANDERSON SECONDARY SCHOOL SINGAPORE 569206,569206,30029.3897069497,39593.0597646087,1.37434001701177,103.851554107068,103.851554107068,Anderson Secondary School
SAINT JOSEPH'S INSTITUTION INTERNATIONAL,490,THOMSON ROAD,SAINT JOSEPH'S INSTITUTION INTERNATIONAL,490 THOMSON ROAD SAINT JOSEPH'S INSTITUTION INTERNATIONAL SINGAPORE 298191,298191,28877.4865291258,34997.5215271115,1.33277966205662,103.841203293423,103.841203293423,St. Joseph's Institution
KUO CHUAN PRESBYTERIAN PRIMARY SCHOOL,8,BISHAN STREET 13,KUO CHUAN PRESBYTERIAN PRIMARY SCHOOL,8 BISHAN STREET 13 KUO CHUAN PRESBYTERIAN PRIMARY SCHOOL SINGAPORE 579793,579793,30414.9291181238,36835.1167885177,1.34939813669536,103.855018233311,103.855018233311,Kuo Chuan Presbyterian Primary School
EAST SPRING PRIMARY SCHOOL,31,TAMPINES STREET 33,EAST SPRING PRIMARY SCHOOL,31 TAMPINES STREET 33 EAST SPRING PRIMARY SCHOOL SINGAPORE 529258,529258,42284.8340225685,37198.8184850682,1.35268400746357,103.961676849165,103.961676849165,East Spring Primary School
GUANGYANG PRIMARY SCHOOL,6,BISHAN STREET 12,GUANGYANG PRIMARY SCHOOL,6 BISHAN STREET 12 GUANGYANG PRIMARY SCHOOL SINGAPORE 579806,579806,29795.6102129035,36425.0979033671,1.34569011530238,103.849453239895,103.849453239895,Guangyang Primary School
GREENRIDGE PRIMARY SCHOOL,11,JELAPANG ROAD,GREENRIDGE PRIMARY SCHOOL,11 JELAPANG ROAD GREENRIDGE PRIMARY SCHOOL SINGAPORE 677744,677744,20708.0073222192,40870.2050487585,1.3858892193692,103.767794469258,103.767794469258,Greenridge Primary School
BOWEN SECONDARY SCHOOL,2,LORONG NAPIRI,BOWEN SECONDARY SCHOOL,2 LORONG NAPIRI BOWEN SECONDARY SCHOOL SINGAPORE 547529,547529,32934.6156324307,39153.0014795549,1.37035994436209,103.877659577677,103.877659577677,Bowen Secondary School
TAMPINES NORTH PRIMARY SCHOOL,30,TAMPINES AVENUE 9,TAMPINES NORTH PRIMARY SCHOOL,30 TAMPINES AVENUE 9 TAMPINES NORTH PRIMARY SCHOOL SINGAPORE 529565,529565,40843.482626386,38060.3925251346,1.36047641484682,103.948725782833,103.948725782833,Tampines North Primary School
SINGAPORE UNIVERSITY OF TECHNOLOGY AND DESIGN,8,SOMAPAH ROAD,SINGAPORE UNIVERSITY OF TECHNOLOGY AND DESIGN,8 SOMAPAH ROAD SINGAPORE UNIVERSITY OF TECHNOLOGY AND DESIGN SINGAPORE 487372,487372,42416.5920993574,35815.2679505069,1.3401716369901,103.962860116421,103.962860116421,Singapore University of Technology and Design
BEDOK SOUTH SECONDARY SCHOOL,1,JALAN LANGGAR BEDOK,BEDOK SOUTH SECONDARY SCHOOL,1 JALAN LANGGAR BEDOK BEDOK SOUTH SECONDARY SCHOOL SINGAPORE 468585,468585,41095.5563319344,34152.6950651146,1.32513655159184,103.950989139261,103.950989139261,Bedok South Secondary School
YISHUN TOWN SECONDARY SCHOOL,6,YISHUN STREET 21,YISHUN TOWN SECONDARY SCHOOL,6 YISHUN STREET 21 YISHUN TOWN SECONDARY SCHOOL SINGAPORE 768610,768610,28531.4577029087,46004.3591205124,1.43232156717386,103.838094226361,103.838094226361,Yishun Town Secondary School
NANYANG TECHNOLOGICAL UNIVERSITY,71,NANYANG CRESCENT,NANYANG TECHNOLOGICAL UNIVERSITY,71 NANYANG CRESCENT NANYANG TECHNOLOGICAL UNIVERSITY SINGAPORE 637035,637035,11987.8813326219,37375.6961976793,1.35428274373946,103.689439500345,103.689439500345,Nanyang Technological University
NAN HUA HIGH SCHOOL,41,CLEMENTI AVENUE 1,NAN HUA HIGH SCHOOL,41 CLEMENTI AVENUE 1 NAN HUA HIGH SCHOOL SINGAPORE 129956,129956,20793.1335141817,32268.1425985936,1.30809529518605,103.768561446725,103.768561446725,Nan Hua High School
PING YI SECONDARY SCHOOL,61,CHAI CHEE STREET,PING YI SECONDARY SCHOOL,61 CHAI CHEE STREET PING YI SECONDARY SCHOOL SINGAPORE 468980,468980,37724.7424694616,34360.4560490176,1.3270167275387,103.920700671987,103.920700671987,Ping Yi Secondary School
NANYANG POLYTECHNIC,150,ANG MO KIO AVENUE 8,NANYANG POLYTECHNIC,150 ANG MO KIO AVENUE 8 NANYANG POLYTECHNIC SINGAPORE 569815,569815,29827.0590414694,40342.6162949912,1.38111875111583,103.849736066713,103.849736066713,Nanyang Polytechnic
SAINT MARGARET'S SECONDARY SCHOOL,111,FARRER ROAD,SAINT MARGARET'S SECONDARY SCHOOL,111 FARRER ROAD SAINT MARGARET'S SECONDARY SCHOOL SINGAPORE 259240,259240,25399.434259722,33591.9655932952,1.32006821363359,103.80995114006,103.80995114006,St. Margaret's Secondary School
NATIONAL UNIVERSITY OF SINGAPORE,2,PRINCE GEORGE'S PARK,NATIONAL UNIVERSITY OF SINGAPORE,2 PRINCE GEORGE'S PARK NATIONAL UNIVERSITY OF SINGAPORE SINGAPORE 118401,118401,22065.0905632423,30532.7102269996,1.29240093319466,103.779990913178,103.779990913178,National University of Singapore
NAN HUA PRIMARY SCHOOL,30,JALAN LEMPENG,NAN HUA PRIMARY SCHOOL,30 JALAN LEMPENG NAN HUA PRIMARY SCHOOL SINGAPORE 128806,128806,19962.2298404071,33496.2443055101,1.31920159956387,103.761095065761,103.761095065761,Nan Hua Primary School
NORTH SPRING PRIMARY SCHOOL,1,RIVERVALE STREET,NORTH SPRING PRIMARY SCHOOL,1 RIVERVALE STREET NORTH SPRING PRIMARY SCHOOL SINGAPORE 545088,545088,35777.2005732814,40999.8398870248,1.38706146494859,103.903202683028,103.903202683028,North Spring Primary School
SENGKANG SECONDARY SCHOOL,10,COMPASSVALE LANE,SENGKANG SECONDARY SCHOOL,10 COMPASSVALE LANE SENGKANG SECONDARY SCHOOL SINGAPORE 545090,545090,35238.8912931653,40940.0948522743,1.38652129134849,103.898365549236,103.898365549236,Sengkang Secondary School
ENDEAVOUR PRIMARY SCHOOL,10,ADMIRALTY LINK,ENDEAVOUR PRIMARY SCHOOL,10 ADMIRALTY LINK ENDEAVOUR PRIMARY SCHOOL SINGAPORE 757521,757521,26232.5507349819,48405.7003912628,1.45403837499301,103.817436231731,103.817436231731,Endeavour Primary School
CEDAR GIRLS' SECONDARY SCHOOL,1,CEDAR AVENUE,CEDAR GIRLS' SECONDARY SCHOOL,1 CEDAR AVENUE CEDAR GIRLS' SECONDARY SCHOOL SINGAPORE 349692,349692,32519.9675315833,35105.7372267004,1.33375800216334,103.873933064886,103.873933064886,Cedar Girls' Secondary School
JIEMIN PRIMARY SCHOOL,2,YISHUN STREET 71,JIEMIN PRIMARY SCHOOL,2 YISHUN STREET 71 JIEMIN PRIMARY SCHOOL SINGAPORE 768515,768515,27678.0421859771,45492.0549418237,1.42768847665227,103.830425490093,103.830425490093,Jiemin Primary School
MAHA BODHI SCHOOL,10,UBI AVENUE 1,MAHA BODHI SCHOOL,10 UBI AVENUE 1 MAHA BODHI SCHOOL SINGAPORE 408931,408931,35565.4979411988,34521.1796176471,1.32847086658384,103.901298737314,103.901298737314,Maha Bodhi School
WOODLANDS RING PRIMARY SCHOOL,11,WOODLANDS RING ROAD,WOODLANDS RING PRIMARY SCHOOL,11 WOODLANDS RING ROAD WOODLANDS RING PRIMARY SCHOOL SINGAPORE 738240,738240,24006.7839585366,46295.2823582534,1.43495229315857,103.797435733144,103.797435733144,Woodlands Ring Primary School
NORTHBROOKS SECONDARY SCHOOL,585,YISHUN RING ROAD,NORTHBROOKS SECONDARY SCHOOL,585 YISHUN RING ROAD NORTHBROOKS SECONDARY SCHOOL SINGAPORE 768692,768692,29316.3687516721,44731.7859666422,1.42081285020652,103.845147332528,103.845147332528,Northbrooks Secondary School
SEMBAWANG PRIMARY SCHOOL,10,SEMBAWANG DRIVE,SEMBAWANG PRIMARY SCHOOL,10 SEMBAWANG DRIVE SEMBAWANG PRIMARY SCHOOL SINGAPORE 757715,757715,26633.8508971538,47414.4307650849,1.4450737155262,103.821042374036,103.821042374036,Sembawang Primary School
NANYANG GIRLS' HIGH SCHOOL,2,LINDEN DRIVE,NANYANG GIRLS' HIGH SCHOOL,2 LINDEN DRIVE NANYANG GIRLS' HIGH SCHOOL SINGAPORE 288683,288683,24561.4160661073,34754.6755309552,1.33058326666479,103.802420979943,103.802420979943,Nanyang Girls' High School
SINGAPORE CHINESE GIRLS' SCHOOL (PRIMARY),190,DUNEARN ROAD,SINGAPORE CHINESE GIRLS' SCHOOL (PRIMARY),190 DUNEARN ROAD SINGAPORE CHINESE GIRLS' SCHOOL (PRIMARY) SINGAPORE 309437,309437,27379.6878858209,33673.6731678378,1.32080725235992,103.827744749548,103.827744749548,Singapore Chinese Girlsâ€™ School (Primary)
NAVAL BASE PRIMARY SCHOOL,7,YISHUN AVENUE 4,NAVAL BASE PRIMARY SCHOOL,7 YISHUN AVENUE 4 NAVAL BASE PRIMARY SCHOOL SINGAPORE 769028,769028,28609.3447617413,44233.5083953608,1.41630663159387,103.838794077233,103.838794077233,Naval Base Primary School
HOUGANG PRIMARY SCHOOL,1,HOUGANG STREET 93,HOUGANG PRIMARY SCHOOL,1 HOUGANG STREET 93 HOUGANG PRIMARY SCHOOL SINGAPORE 534238,534238,33284.6782123018,39929.5216681417,1.37738245231461,103.880805274557,103.880805274557,Hougang Primary School
NEW TOWN PRIMARY SCHOOL,300,TANGLIN HALT ROAD,NEW TOWN PRIMARY SCHOOL,300 TANGLIN HALT ROAD NEW TOWN PRIMARY SCHOOL SINGAPORE 148812,148812,24303.310102744,31333.338985689,1.29964188181021,103.80010216304,103.80010216304,New Town Primary School
SENGKANG GREEN PRIMARY SCHOOL,15,FERNVALE ROAD,SENGKANG GREEN PRIMARY SCHOOL,15 FERNVALE ROAD SENGKANG GREEN PRIMARY SCHOOL SINGAPORE 797636,797636,32662.8166451091,41639.3984784018,1.39284606680477,103.875217666486,103.875217666486,Sengkang Green Primary School
HORIZON PRIMARY SCHOOL,61,EDGEDALE PLAINS,HORIZON PRIMARY SCHOOL,61 EDGEDALE PLAINS HORIZON PRIMARY SCHOOL SINGAPORE 828819,828819,36912.5247354358,42380.7999361996,1.399550034492,103.913404855665,103.913404855665,Horizon Primary School
JUNYUAN SECONDARY SCHOOL,11,TAMPINES STREET 84,JUNYUAN SECONDARY SCHOOL,11 TAMPINES STREET 84 JUNYUAN SECONDARY SCHOOL SINGAPORE 528933,528933,39192.0351621611,37301.4129357934,1.35361315263537,103.933886165824,103.933886165824,Junyuan Secondary School
ZHONGHUA PRIMARY SCHOOL,12,SERANGOON AVENUE 4,ZHONGHUA PRIMARY SCHOOL,12 SERANGOON AVENUE 4 ZHONGHUA PRIMARY SCHOOL SINGAPORE 556095,556095,32055.7766133798,38029.9161160812,1.36020329705047,103.869762438084,103.869762438084,Zhonghua Primary School
ZHENGHUA SECONDARY SCHOOL,62,BUKIT PANJANG RING ROAD,ZHENGHUA SECONDARY SCHOOL,62 BUKIT PANJANG RING ROAD ZHENGHUA SECONDARY SCHOOL SINGAPORE 679962,679962,20453.8539943136,41144.0638934448,1.38836583415352,103.765510638527,103.765510638527,Zhenghua Secondary School
BUKIT PANJANG PRIMARY SCHOOL,109,CASHEW ROAD,BUKIT PANJANG PRIMARY SCHOOL,109 CASHEW ROAD BUKIT PANJANG PRIMARY SCHOOL SINGAPORE 679676,679676,20883.8530479269,39513.7297099214,1.37362179302436,103.769374904025,103.769374904025,Bukit Panjang Primary School
CATHOLIC JUNIOR COLLEGE,129,WHITLEY ROAD,CATHOLIC JUNIOR COLLEGE,129 WHITLEY ROAD CATHOLIC JUNIOR COLLEGE SINGAPORE 297822,297822,28190.3351049758,34088.1962013766,1.32455605783219,103.835028842353,103.835028842353,Catholic Junior College
OPERA ESTATE PRIMARY SCHOOL,48,FIDELIO STREET,OPERA ESTATE PRIMARY SCHOOL,48 FIDELIO STREET OPERA ESTATE PRIMARY SCHOOL SINGAPORE 458436,458436,38068.3909911709,33509.3080883529,1.31931914436255,103.923788259248,103.923788259248,Opera Estate Primary School
PUNGGOL SECONDARY SCHOOL,51,EDGEFIELD PLAINS,PUNGGOL SECONDARY SCHOOL,51 EDGEFIELD PLAINS PUNGGOL SECONDARY SCHOOL SINGAPORE 828870,828870,36446.0969829671,42658.0347204488,1.40205738421399,103.909213706482,103.909213706482,Punggol Secondary School
TECK WHYE PRIMARY SCHOOL,11,TECK WHYE WALK,TECK WHYE PRIMARY SCHOOL,11 TECK WHYE WALK TECK WHYE PRIMARY SCHOOL SINGAPORE 688261,688261,19094.0433355458,40622.6493846048,1.38364996834457,103.753291857016,103.753291857016,Teck Whye Primary School
SENG KANG PRIMARY SCHOOL,21,COMPASSVALE WALK,SENG KANG PRIMARY SCHOOL,21 COMPASSVALE WALK SENG KANG PRIMARY SCHOOL SINGAPORE 545166,545166,35394.8580362787,41269.1828696113,1.38949740422462,103.899767112047,103.899767112047,Seng Kang Primary School
GUANGYANG SECONDARY SCHOOL,8,BISHAN STREET 12,GUANGYANG SECONDARY SCHOOL,8 BISHAN STREET 12 GUANGYANG SECONDARY SCHOOL SINGAPORE 579807,579807,29879.7115914728,36283.3906797953,1.34440856042912,103.850208933626,103.850208933626,Guangyang Secondary School
YUYING SECONDARY SCHOOL,47,HOUGANG AVENUE 1,YUYING SECONDARY SCHOOL,47 HOUGANG AVENUE 1 YUYING SECONDARY SCHOOL SINGAPORE 538884,538884,34329.6638843575,37690.788632296,1.35713595302467,103.890194755287,103.890194755287,Yuying Secondary School
TAO NAN SCHOOL,49,MARINE CRESCENT,TAO NAN SCHOOL,49 MARINE CRESCENT TAO NAN SCHOOL SINGAPORE 449761,449761,36706.7907984024,31957.4686842412,1.30528528687321,103.911553152326,103.911553152326,Tao Nan School
ZHANGDE PRIMARY SCHOOL,51,JALAN MEMBINA,ZHANGDE PRIMARY SCHOOL,51 JALAN MEMBINA ZHANGDE PRIMARY SCHOOL SINGAPORE 169485,169485,27180.1468993286,29627.1075303145,1.28421153335379,103.825951875662,103.825951875662,Zhangde Primary School
PEI HWA SECONDARY SCHOOL,21,FERNVALE LINK,PEI HWA SECONDARY SCHOOL,21 FERNVALE LINK PEI HWA SECONDARY SCHOOL SINGAPORE 797702,797702,33023.8451944096,41366.172537256,1.39037504993234,103.878461745339,103.878461745339,Pei Hwa Secondary School
RADIN MAS PRIMARY SCHOOL,1,BUKIT PURMEI AVENUE,RADIN MAS PRIMARY SCHOOL,1 BUKIT PURMEI AVENUE RADIN MAS PRIMARY SCHOOL SINGAPORE 099840,099840,26983.8685896052,28603.9263991714,1.27495823622634,103.824188270373,103.824188270373,Radin Mas Primary School
YIO CHU KANG PRIMARY SCHOOL,1,HOUGANG STREET 51,YIO CHU KANG PRIMARY SCHOOL,1 HOUGANG STREET 51 YIO CHU KANG PRIMARY SCHOOL SINGAPORE 538720,538720,33823.1315680202,39990.3703038469,1.37793264345276,103.885643682171,103.885643682171,Yio Chu Kang Primary School
KHENG CHENG SCHOOL,15,LORONG 3 TOA PAYOH,KHENG CHENG SCHOOL,15 LORONG 3 TOA PAYOH KHENG CHENG SCHOOL SINGAPORE 319580,319580,29539.1234353296,35501.5835219584,1.3373381935639,103.847148501824,103.847148501824,Kheng Cheng School
DAMAI SECONDARY SCHOOL,4800,BEDOK RESERVOIR ROAD,DAMAI SECONDARY SCHOOL,4800 BEDOK RESERVOIR ROAD DAMAI SECONDARY SCHOOL SINGAPORE 479229,479229,38435.9529452929,35456.4196343422,1.33692798510393,103.927091653438,103.927091653438,Damai Secondary School
SAINT GABRIEL'S PRIMARY SCHOOL,220,LORONG CHUAN,SAINT GABRIEL'S PRIMARY SCHOOL,220 LORONG CHUAN SAINT GABRIEL'S PRIMARY SCHOOL SINGAPORE 556742,556742,31254.358949963,36843.2848763354,1.34947192653862,103.862561037707,103.862561037707,St. Gabriel's Primary School
KEMING PRIMARY SCHOOL,90,BUKIT BATOK EAST AVENUE 6,KEMING PRIMARY SCHOOL,90 BUKIT BATOK EAST AVENUE 6 KEMING PRIMARY SCHOOL SINGAPORE 659762,659762,19445.3031655131,36407.3561431039,1.34552849960874,103.756449399351,103.756449399351,Keming Primary School
CANOSSA CATHOLIC PRIMARY SCHOOL,1,SALLIM ROAD,CANOSSA CATHOLIC PRIMARY SCHOOL,1 SALLIM ROAD CANOSSA CATHOLIC PRIMARY SCHOOL SINGAPORE 387621,387621,33443.1189393327,34319.1509661097,1.32664424544839,103.882227964852,103.882227964852,Canossa Catholic Primary School
SI LING PRIMARY SCHOOL,61,WOODLANDS AVENUE 1,SI LING PRIMARY SCHOOL,61 WOODLANDS AVENUE 1 SI LING PRIMARY SCHOOL SINGAPORE 739067,739067,22738.0565941427,46014.1202728488,1.43240935732525,103.786035065192,103.786035065192,Si Ling Primary School
OASIS PRIMARY SCHOOL,71,EDGEFIELD PLAINS,OASIS PRIMARY SCHOOL,71 EDGEFIELD PLAINS OASIS PRIMARY SCHOOL SINGAPORE 828716,828716,36658.2990973163,42941.8599344008,1.40462413200793,103.911120600638,103.911120600638,Oasis Primary School
ORCHID PARK SECONDARY SCHOOL,10,YISHUN STREET 81,ORCHID PARK SECONDARY SCHOOL,10 YISHUN STREET 81 ORCHID PARK SECONDARY SCHOOL SINGAPORE 768454,768454,28505.3110986585,44124.4476742018,1.41532032779634,103.837859241343,103.837859241343,Orchid Park Secondary School
SAINT ANTHONY'S CANOSSIAN SECONDARY SCHOOL,1600,BEDOK NORTH AVENUE 4,SAINT ANTHONY'S CANOSSIAN SECONDARY SCHOOL,1600 BEDOK NORTH AVENUE 4 SAINT ANTHONY'S CANOSSIAN SECONDARY SCHOOL SINGAPORE 469700,469700,40092.566337103,35206.0519231595,1.33466313498855,103.941977166932,103.941977166932,St. Anthony's Canossian Secondary School
SAINT ANTHONY'S CANOSSIAN PRIMARY SCHOOL,1602,BEDOK NORTH AVENUE 4,SAINT ANTHONY'S CANOSSIAN PRIMARY SCHOOL,1602 BEDOK NORTH AVENUE 4 SAINT ANTHONY'S CANOSSIAN PRIMARY SCHOOL SINGAPORE 469701,469701,40009.9558383394,35212.930261923,1.3347253730189,103.941234868202,103.941234868202,St. Anthony's Canossian Primary School
NORTHLAND PRIMARY SCHOOL,15,YISHUN AVENUE 4,NORTHLAND PRIMARY SCHOOL,15 YISHUN AVENUE 4 NORTHLAND PRIMARY SCHOOL SINGAPORE 769026,769026,28846.8654693784,44749.1496797893,1.42096989918951,103.840928424929,103.840928424929,Northland Primary School
HWA CHONG INSTITUTION,661,BUKIT TIMAH ROAD,HWA CHONG INSTITUTION,661 BUKIT TIMAH ROAD HWA CHONG INSTITUTION SINGAPORE 269734,269734,24926.8156149359,34131.5293299966,1.3249477928719,103.805704361472,103.805704361472,Hwa Chong Institution
SAINT HILDA'S PRIMARY SCHOOL (U/C),2,TAMPINES AVENUE 3,SAINT HILDA'S PRIMARY SCHOOL (U/C),2 TAMPINES AVENUE 3 SAINT HILDA'S PRIMARY SCHOOL (U/C) SINGAPORE 529706,529706,39641.0330356695,36830.0272573233,1.34934994368496,103.937920511812,103.937920511812,St. Hilda's Primary School
DUNMAN HIGH SCHOOL,10,TANJONG RHU ROAD,DUNMAN HIGH SCHOOL,10 TANJONG RHU ROAD DUNMAN HIGH SCHOOL SINGAPORE 436895,436895,33522.593402571,31368.7836118564,1.29996216014962,103.88294155989,103.88294155989,Dunman High School
ASSUMPTION ENGLISH SCHOOL,622,UPPER BUKIT TIMAH ROAD,ASSUMPTION ENGLISH SCHOOL,622 UPPER BUKIT TIMAH ROAD ASSUMPTION ENGLISH SCHOOL SINGAPORE 678117,678117,20584.7646280937,38934.3043401875,1.36838160662857,103.766687526556,103.766687526556,Assumption English School
ANGLO-CHINESE SCHOOL (BARKER ROAD),60,BARKER ROAD,ANGLO-CHINESE SCHOOL (BARKER ROAD),60 BARKER ROAD ANGLO-CHINESE SCHOOL (BARKER ROAD) SINGAPORE 309919,309919,28273.1184036592,33542.0043816008,1.31961649151328,103.835772689988,103.835772689988,Anglo-Chinese School (Barker Road)
WEST SPRING SECONDARY SCHOOL,61,SENJA ROAD,WEST SPRING SECONDARY SCHOOL,61 SENJA ROAD WEST SPRING SECONDARY SCHOOL SINGAPORE 677737,677737,19854.9273258867,41084.0393943992,1.38782283303782,103.760128840155,103.760128840155,West Spring Secondary School
SAINT GABRIEL'S SECONDARY SCHOOL,24,SERANGOON AVENUE 1,SAINT GABRIEL'S SECONDARY SCHOOL,24 SERANGOON AVENUE 1 SAINT GABRIEL'S SECONDARY SCHOOL SINGAPORE 556140,556140,32760.4506575912,36513.3583147768,1.34648798732177,103.876094163287,103.876094163287,St. Gabriel's Secondary School
PEI CHUN PUBLIC SCHOOL,16,LORONG 7 TOA PAYOH,PEI CHUN PUBLIC SCHOOL,16 LORONG 7 TOA PAYOH PEI CHUN PUBLIC SCHOOL SINGAPORE 319320,319320,30478.0803604238,35505.5040733535,1.33737358725951,103.855585578061,103.855585578061,Pei Chun Public School
KRANJI SECONDARY SCHOOL,61,CHOA CHU KANG STREET 51,KRANJI SECONDARY SCHOOL,61 CHOA CHU KANG STREET 51 KRANJI SECONDARY SCHOOL SINGAPORE 689333,689333,17747.3609606959,41330.5036858637,1.39005109871311,103.741190664845,103.741190664845,Kranji Secondary School
YUHUA SECONDARY SCHOOL,35,JURONG WEST STREET 41,YUHUA SECONDARY SCHOOL,35 JURONG WEST STREET 41 YUHUA SECONDARY SCHOOL SINGAPORE 649406,649406,15687.9488993762,36590.8085158002,1.34718626876968,103.722687235839,103.722687235839,Yuhua Secondary School
CHUNG CHENG HIGH SCHOOL (YISHUN),11,YISHUN STREET 61,CHUNG CHENG HIGH SCHOOL (YISHUN),11 YISHUN STREET 61 CHUNG CHENG HIGH SCHOOL (YISHUN) SINGAPORE 768547,768547,28453.17758404,44556.321072707,1.41922603586175,103.837390782849,103.837390782849,Chung Cheng High School (Yishun)
GEYLANG METHODIST SCHOOL (PRIMARY),4,GEYLANG EAST CENTRAL,GEYLANG METHODIST SCHOOL (PRIMARY),4 GEYLANG EAST CENTRAL GEYLANG METHODIST SCHOOL (PRIMARY) SINGAPORE 389706,389706,33623.1818729434,33318.1223668903,1.31759126757284,103.883845744916,103.883845744916,Geylang Methodist School (Primary)
FRONTIER PRIMARY SCHOOL,20,JURONG WEST STREET 61,FRONTIER PRIMARY SCHOOL,20 JURONG WEST STREET 61 FRONTIER PRIMARY SCHOOL SINGAPORE 648200,648200,13129.8467444237,35399.679120725,1.33641298743234,103.69970173931,103.69970173931,Frontier Primary School
NAN CHIAU PRIMARY SCHOOL,50,ANCHORVALE LINK,NAN CHIAU PRIMARY SCHOOL,50 ANCHORVALE LINK NAN CHIAU PRIMARY SCHOOL SINGAPORE 545080,545080,34439.3196740765,41569.2687405795,1.39221149906592,103.891180928186,103.891180928186,Nan Chiau Primary School
TANJONG KATONG PRIMARY SCHOOL,10,SERAYA ROAD,TANJONG KATONG PRIMARY SCHOOL,10 SERAYA ROAD TANJONG KATONG PRIMARY SCHOOL SINGAPORE 437259,437259,35431.3472408336,31952.5175080001,1.30524084264265,103.900092702031,103.900092702031,Tanjong Katong Primary School
ANGLO-CHINESE SCHOOL (PRIMARY),50,BARKER ROAD,ANGLO-CHINESE SCHOOL (PRIMARY),50 BARKER ROAD ANGLO-CHINESE SCHOOL (PRIMARY) SINGAPORE 309918,309918,28254.9829477305,33404.2340238672,1.31837054523521,103.835609732354,103.835609732354,Anglo-Chinese School (Primary)
XINGNAN PRIMARY SCHOOL,5,JURONG WEST STREET 91,XINGNAN PRIMARY SCHOOL,5 JURONG WEST STREET 91 XINGNAN PRIMARY SCHOOL SINGAPORE 649036,649036,11822.0669615418,36078.0729275383,1.34254744877694,103.687950252103,103.687950252103,Xingnan Primary School
ANDERSON SERANGOON JUNIOR COLLEGE,4500,ANG MO KIO AVENUE 6,ANDERSON SERANGOON JUNIOR COLLEGE,4500 ANG MO KIO AVENUE 6 ANDERSON SERANGOON JUNIOR COLLEGE SINGAPORE 569843,569843,29384.6783545613,40102.1495742314,1.37894408046934,103.845760935132,103.845760935132,Anderson Serangoon Junior College
QIHUA PRIMARY SCHOOL,5,WOODLANDS STREET 81,QIHUA PRIMARY SCHOOL,5 WOODLANDS STREET 81 QIHUA PRIMARY SCHOOL SINGAPORE 738525,738525,22994.5551156951,47078.5774599016,1.4420359661233,103.788339756898,103.788339756898,Qihua Primary School
SHUQUN PRIMARY SCHOOL,8,JURONG WEST STREET 51,SHUQUN PRIMARY SCHOOL,8 JURONG WEST STREET 51 SHUQUN PRIMARY SCHOOL SINGAPORE 649332,649332,15558.4638573611,36642.4359194618,1.34765311431632,103.721523713379,103.721523713379,Shuqun Primary School
PRINCESS ELIZABETH PRIMARY SCHOOL,30,BUKIT BATOK WEST AVENUE 3,PRINCESS ELIZABETH PRIMARY SCHOOL,30 BUKIT BATOK WEST AVENUE 3 PRINCESS ELIZABETH PRIMARY SCHOOL SINGAPORE 659163,659163,17728.1546840398,36813.7803722396,1.349203512653,103.74101964471,103.74101964471,Princess Elizabeth Primary School
BOON LAY SECONDARY SCHOOL,11,JURONG WEST STREET 65,BOON LAY SECONDARY SCHOOL,11 JURONG WEST STREET 65 BOON LAY SECONDARY SCHOOL SINGAPORE 648354,648354,13373.5768683841,36097.304205548,1.34272216334333,103.701891453912,103.701891453912,Boon Lay Secondary School
OUTRAM SECONDARY SCHOOL,3,YORK HILL,OUTRAM SECONDARY SCHOOL,3 YORK HILL OUTRAM SECONDARY SCHOOL SINGAPORE 168622,168622,28423.8747252515,29881.6544933487,1.28651357464735,103.837127264403,103.837127264403,Outram Secondary School
CHIJ (KATONG) PRIMARY,17,MARTIA ROAD,CHIJ (KATONG) PRIMARY,17 MARTIA ROAD CHIJ (KATONG) PRIMARY SINGAPORE 424821,424821,36656.9804726057,32090.1643723603,1.30648535277087,103.911105620496,103.911105620496,CHIJ (Katong) Primary
YUHUA PRIMARY SCHOOL,158,JURONG EAST STREET 24,YUHUA PRIMARY SCHOOL,158 JURONG EAST STREET 24 YUHUA PRIMARY SCHOOL SINGAPORE 609558,609558,17737.7130106175,36105.9662365932,1.34280230475033,103.741105772644,103.741105772644,Yuhua Primary School
KRANJI PRIMARY SCHOOL,11,CHOA CHU KANG STREET 54,KRANJI PRIMARY SCHOOL,11 CHOA CHU KANG STREET 54 KRANJI PRIMARY SCHOOL SINGAPORE 689189,689189,18434.245239621,41718.5305804759,1.39356050497104,103.747362720939,103.747362720939,Kranji Primary School
BUKIT VIEW PRIMARY SCHOOL,18,BUKIT BATOK STREET 21,BUKIT VIEW PRIMARY SCHOOL,18 BUKIT BATOK STREET 21 BUKIT VIEW PRIMARY SCHOOL SINGAPORE 659634,659634,19135.5884738322,36444.0823157039,1.34586054788695,103.75366641455,103.75366641455,Bukit View Primary School
PASIR RIS PRIMARY SCHOOL,5,PASIR RIS STREET 21,PASIR RIS PRIMARY SCHOOL,5 PASIR RIS STREET 21 PASIR RIS PRIMARY SCHOOL SINGAPORE 518968,518968,42410.5136828674,39380.9927665386,1.37241870245531,103.962807212116,103.962807212116,Pasir Ris Primary School
WELLINGTON PRIMARY SCHOOL,10,WELLINGTON CIRCLE,WELLINGTON PRIMARY SCHOOL,10 WELLINGTON CIRCLE WELLINGTON PRIMARY SCHOOL SINGAPORE 757702,757702,26774.2225156762,48171.4790451899,1.45192019155475,103.822303719094,103.822303719094,Wellington Primary School
FAIRFIELD METHODIST SCHOOL (SECONDARY),102,DOVER ROAD,FAIRFIELD METHODIST SCHOOL (SECONDARY),102 DOVER ROAD FAIRFIELD METHODIST SCHOOL (SECONDARY) SINGAPORE 139649,139649,22522.3772030193,31553.6179904211,1.30163374395823,103.784099647149,103.784099647149,Fairfield Methodist Secondary School
SAINT ANDREW'S JUNIOR COLLEGE,5,SORBY ADAMS DRIVE,SAINT ANDREW'S JUNIOR COLLEGE,5 SORBY ADAMS DRIVE SAINT ANDREW'S JUNIOR COLLEGE SINGAPORE 357691,357691,31367.377300797,35029.1094067935,1.33306515740956,103.863576377056,103.863576377056,Saint Andrew's Junior College
SOUTH VIEW PRIMARY SCHOOL,6,CHOA CHU KANG CENTRAL,SOUTH VIEW PRIMARY SCHOOL,6 CHOA CHU KANG CENTRAL SOUTH VIEW PRIMARY SCHOOL SINGAPORE 689762,689762,18313.2418920035,40403.3706761971,1.38166664389749,103.746275846011,103.746275846011,South View Primary School
SAINT ANDREW'S JUNIOR SCHOOL,2,FRANCIS THOMAS DRIVE,SAINT ANDREW'S JUNIOR SCHOOL,2 FRANCIS THOMAS DRIVE SAINT ANDREW'S JUNIOR SCHOOL SINGAPORE 359337,359337,31538.8499082169,34845.2692709584,1.33140255308868,103.865117134385,103.865117134385,St. Andrew's Junior School
ANG MO KIO SECONDARY SCHOOL,6,ANG MO KIO STREET 22,ANG MO KIO SECONDARY SCHOOL,6 ANG MO KIO STREET 22 ANG MO KIO SECONDARY SCHOOL SINGAPORE 569362,569362,28983.3847605418,38818.7070966065,1.36733710171069,103.842154973672,103.842154973672,Ang Mo Kio Secondary School
BUKIT MERAH SECONDARY SCHOOL,10,LENGKOK BAHRU,BUKIT MERAH SECONDARY SCHOOL,10 LENGKOK BAHRU BUKIT MERAH SECONDARY SCHOOL SINGAPORE 159050,159050,25787.5608570725,29790.9091712814,1.28569283064288,103.813438929393,103.813438929393,Bukit Merah Secondary School
BROADRICK SECONDARY SCHOOL,61,DAKOTA CRESCENT,BROADRICK SECONDARY SCHOOL,61 DAKOTA CRESCENT BROADRICK SECONDARY SCHOOL SINGAPORE 399935,399935,33965.1104164785,32152.5974159427,1.30705061123433,103.886917922608,103.886917922608,Broadrick Secondary School
DEYI SECONDARY SCHOOL,1,ANG MO KIO STREET 42,DEYI SECONDARY SCHOOL,1 ANG MO KIO STREET 42 DEYI SECONDARY SCHOOL SINGAPORE 569277,569277,30139.7572483057,38670.5350554623,1.36599702567717,103.852545772422,103.852545772422,Deyi Secondary School
EVERGREEN PRIMARY SCHOOL,31,WOODLANDS CIRCLE,EVERGREEN PRIMARY SCHOOL,31 WOODLANDS CIRCLE EVERGREEN PRIMARY SCHOOL SINGAPORE 738908,738908,23688.7552570887,47312.692020528,1.44415332824735,103.794577787757,103.794577787757,Evergreen Primary School
GREENWOOD PRIMARY SCHOOL,11,WOODLANDS DRIVE 62,GREENWOOD PRIMARY SCHOOL,11 WOODLANDS DRIVE 62 GREENWOOD PRIMARY SCHOOL SINGAPORE 737942,737942,24818.0410170276,46842.3174743224,1.43989958331782,103.804725587384,103.804725587384,Greenwood Primary School
SAINT MARGARET'S PRIMARY SCHOOL (U/C),136,SOPHIA ROAD,SAINT MARGARET'S PRIMARY SCHOOL (U/C),136 SOPHIA ROAD SAINT MARGARET'S PRIMARY SCHOOL (U/C) SINGAPORE 228197,228197,29432.7525088117,31788.5599566493,1.30375892693678,103.846192524384,103.846192524384,St. Margaret's Primary School
PUNGGOL GREEN PRIMARY SCHOOL,98,PUNGGOL WALK,PUNGGOL GREEN PRIMARY SCHOOL,98 PUNGGOL WALK PUNGGOL GREEN PRIMARY SCHOOL SINGAPORE 828772,828772,35287.340952022,42637.5237120874,1.40187220643293,103.898801330302,103.898801330302,Punggol Green Primary School
JURONG SECONDARY SCHOOL,31,YUAN CHING ROAD,JURONG SECONDARY SCHOOL,31 YUAN CHING ROAD JURONG SECONDARY SCHOOL SINGAPORE 618652,618652,15828.7257759329,34692.6761670429,1.33002032220942,103.723952961648,103.723952961648,Jurong Secondary School
SERANGOON SECONDARY SCHOOL,11,UPPER SERANGOON VIEW,SERANGOON SECONDARY SCHOOL,11 UPPER SERANGOON VIEW SERANGOON SECONDARY SCHOOL SINGAPORE 534237,534237,35658.8371386668,39628.0344803315,1.37465538827443,103.902138740699,103.902138740699,Serangoon Secondary School
NGEE ANN POLYTECHNIC,535,CLEMENTI ROAD,NGEE ANN POLYTECHNIC,535 CLEMENTI ROAD NGEE ANN POLYTECHNIC SINGAPORE 599489,599489,21321.2101575779,34964.5296367351,1.33248057179977,103.773305880529,103.773305880529,Ngee Ann Polytechnic
BLANGAH RISE PRIMARY SCHOOL,91,TELOK BLANGAH HEIGHTS,BLANGAH RISE PRIMARY SCHOOL,91 TELOK BLANGAH HEIGHTS BLANGAH RISE PRIMARY SCHOOL SINGAPORE 109100,109100,25252.1938973861,28732.4526119996,1.27612047924037,103.808628535239,103.808628535239,Blangah Rise Primary School
BUKIT TIMAH PRIMARY SCHOOL,111,LORONG KISMIS,BUKIT TIMAH PRIMARY SCHOOL,111 LORONG KISMIS BUKIT TIMAH PRIMARY SCHOOL SINGAPORE 598112,598112,20600.383664391,35497.4072666373,1.3372995575169,103.766828720721,103.766828720721,Bukit Timah Primary School
LIANHUA PRIMARY SCHOOL,2,BUKIT BATOK STREET 52,LIANHUA PRIMARY SCHOOL,2 BUKIT BATOK STREET 52 LIANHUA PRIMARY SCHOOL SINGAPORE 659243,659243,19191.1979939695,37370.8497486636,1.35424191127295,103.754165828711,103.754165828711,Lianhua Primary School
WOODLANDS PRIMARY SCHOOL,10,WOODLANDS DRIVE 50,WOODLANDS PRIMARY SCHOOL,10 WOODLANDS DRIVE 50 WOODLANDS PRIMARY SCHOOL SINGAPORE 738853,738853,23354.0808293354,46472.0799515136,1.43655108594232,103.791570546509,103.791570546509,Woodlands Primary School
YANGZHENG PRIMARY SCHOOL,15,SERANGOON AVENUE 3,YANGZHENG PRIMARY SCHOOL,15 SERANGOON AVENUE 3 YANGZHENG PRIMARY SCHOOL SINGAPORE 556108,556108,31925.931594234,36751.9403087255,1.34864575840923,103.868595527042,103.868595527042,Yangzheng Primary School
TAMPINES PRIMARY SCHOOL,250,TAMPINES STREET 12,TAMPINES PRIMARY SCHOOL,250 TAMPINES STREET 12 TAMPINES PRIMARY SCHOOL SINGAPORE 529426,529426,40318.132583499,36877.4678724073,1.34977870805929,103.944004684986,103.944004684986,Tampines Primary School
SAINT ANDREW'S SECONDARY SCHOOL,15,FRANCIS THOMAS DRIVE,SAINT ANDREW'S SECONDARY SCHOOL,15 FRANCIS THOMAS DRIVE SAINT ANDREW'S SECONDARY SCHOOL SINGAPORE 359342,359342,31664.831310045,34766.8795819897,1.33069360968075,103.866249138562,103.866249138562,St. Andrew's Secondary School
BEACON PRIMARY SCHOOL,36,BUKIT PANJANG RING ROAD,BEACON PRIMARY SCHOOL,36 BUKIT PANJANG RING ROAD BEACON PRIMARY SCHOOL SINGAPORE 679944,679944,21357.64699852,40655.688190354,1.38394936211823,103.773632022975,103.773632022975,Beacon Primary School
FENGSHAN PRIMARY SCHOOL,307,BEDOK NORTH ROAD,FENGSHAN PRIMARY SCHOOL,307 BEDOK NORTH ROAD FENGSHAN PRIMARY SCHOOL SINGAPORE 469680,469680,38949.9907227494,34668.9245775398,1.32980598760785,103.931710293058,103.931710293058,Fengshan Primary School
LOYANG VIEW SECONDARY SCHOOL,12,PASIR RIS STREET 11,LOYANG VIEW SECONDARY SCHOOL,12 PASIR RIS STREET 11 LOYANG VIEW SECONDARY SCHOOL SINGAPORE 519073,519073,41758.1067258865,38735.8040275108,1.36658417167238,103.956944585725,103.956944585725,Loyang View Secondary School
TAMPINES MERIDIAN JUNIOR COLLEGE,21,PASIR RIS STREET 71,TAMPINES MERIDIAN JUNIOR COLLEGE,21 PASIR RIS STREET 71 TAMPINES MERIDIAN JUNIOR COLLEGE SINGAPORE 518799,518799,39537.4294200996,39813.7284696326,1.37633346909682,103.936990723441,103.936990723441,Tampines Meridian Junior College
BEATTY SECONDARY SCHOOL,1,TOA PAYOH NORTH,BEATTY SECONDARY SCHOOL,1 TOA PAYOH NORTH BEATTY SECONDARY SCHOOL SINGAPORE 318990,318990,30110.2946048304,35993.876840448,1.341790284928,103.852280842345,103.852280842345,Beatty Secondary School
WESTWOOD PRIMARY SCHOOL,1,JURONG WEST STREET 73,WESTWOOD PRIMARY SCHOOL,1 JURONG WEST STREET 73 WESTWOOD PRIMARY SCHOOL SINGAPORE 649188,649188,13222.5567915821,36590.7433790993,1.34718456606375,103.70053420978,103.70053420978,Westwood Primary School
CEDAR PRIMARY SCHOOL,15,CEDAR AVENUE,CEDAR PRIMARY SCHOOL,15 CEDAR AVENUE CEDAR PRIMARY SCHOOL SINGAPORE 349700,349700,32707.8191135684,35308.1476785857,1.3355885014312,103.87562104944,103.87562104944,Cedar Primary School
MEE TOH SCHOOL,21,EDGEDALE PLAINS,MEE TOH SCHOOL,21 EDGEDALE PLAINS MEE TOH SCHOOL SINGAPORE 828867,828867,36376.6569616906,41835.4725095034,1.3946184538592,103.908589494228,103.908589494228,Mee Toh School
YUMIN PRIMARY SCHOOL,3,TAMPINES STREET 21,YUMIN PRIMARY SCHOOL,3 TAMPINES STREET 21 YUMIN PRIMARY SCHOOL SINGAPORE 529393,529393,41036.7447315324,37044.8092632648,1.35129177656981,103.950461927088,103.950461927088,Yumin Primary School
YISHUN INNOVA JUNIOR COLLEGE,3,YISHUN RING ROAD,YISHUN INNOVA JUNIOR COLLEGE,3 YISHUN RING ROAD YISHUN INNOVA JUNIOR COLLEGE SINGAPORE 768675,768675,27634.2199267391,45113.7171314787,1.42426692572335,103.83003171149,103.83003171149,Yishun Innova Junior College
CANBERRA SECONDARY SCHOOL,51,SEMBAWANG DRIVE,CANBERRA SECONDARY SCHOOL,51 SEMBAWANG DRIVE CANBERRA SECONDARY SCHOOL SINGAPORE 757699,757699,25872.8083025776,48311.9895634912,1.45319086315972,103.814203583818,103.814203583818,Canberra Secondary School
CHIJ (KELLOCK),1,BUKIT TERESA ROAD,CHIJ (KELLOCK),1 BUKIT TERESA ROAD CHIJ (KELLOCK) SINGAPORE 099757,099757,27425.6197932558,28611.0557805933,1.275022722964,103.828157564896,103.828157564896,CHIJ (Kellock)
CANBERRA PRIMARY SCHOOL,21,ADMIRALTY DRIVE,CANBERRA PRIMARY SCHOOL,21 ADMIRALTY DRIVE CANBERRA PRIMARY SCHOOL SINGAPORE 757714,757714,26057.0121687725,48097.4040875677,1.45125024371543,103.815858858929,103.815858858929,Canberra Primary School
RIVERVALE PRIMARY SCHOOL,80,RIVERVALE DRIVE,RIVERVALE PRIMARY SCHOOL,80 RIVERVALE DRIVE RIVERVALE PRIMARY SCHOOL SINGAPORE 545092,545092,35928.1770641869,41701.8312798403,1.39340997767762,103.904559511997,103.904559511997,Rivervale Primary School
CHUA CHU KANG PRIMARY SCHOOL,20,CHOA CHU KANG AVENUE 2,CHUA CHU KANG PRIMARY SCHOOL,20 CHOA CHU KANG AVENUE 2 CHUA CHU KANG PRIMARY SCHOOL SINGAPORE 689905,689905,17818.7829598142,39971.2903354876,1.37775890093367,103.741832917421,103.741832917421,Chua Chu Kang Primary School
QIFA PRIMARY SCHOOL,50,WEST COAST AVENUE,QIFA PRIMARY SCHOOL,50 WEST COAST AVENUE QIFA PRIMARY SCHOOL SINGAPORE 128104,128104,19477.8961843997,32838.2868056744,1.31325113867272,103.756743261958,103.756743261958,Qifa Primary School
ALEXANDRA PRIMARY SCHOOL,2A,PRINCE CHARLES CRESCENT,ALEXANDRA PRIMARY SCHOOL,2A PRINCE CHARLES CRESCENT ALEXANDRA PRIMARY SCHOOL SINGAPORE 159016,159016,27010.1854815315,30414.7169698272,1.29133439161334,103.824424680531,103.824424680531,Alexandra Primary School
BEDOK GREEN PRIMARY SCHOOL,1,BEDOK SOUTH AVENUE 2,BEDOK GREEN PRIMARY SCHOOL,1 BEDOK SOUTH AVENUE 2 BEDOK GREEN PRIMARY SCHOOL SINGAPORE 469317,469317,39636.5324891713,33965.6893824711,1.32344593287992,103.937878976352,103.937878976352,Bedok Green Primary School
CHANGKAT CHANGI SECONDARY SCHOOL,23,SIMEI STREET 3,CHANGKAT CHANGI SECONDARY SCHOOL,23 SIMEI STREET 3 CHANGKAT CHANGI SECONDARY SCHOOL SINGAPORE 529894,529894,41346.5926023414,35741.6438345015,1.33950630072876,103.953245525564,103.953245525564,Changkat Changi Secondary School
SAINT JOSEPH'S INSTITUTION JUNIOR,3,ESSEX ROAD,SAINT JOSEPH'S INSTITUTION JUNIOR,3 ESSEX ROAD SAINT JOSEPH'S INSTITUTION JUNIOR SINGAPORE 309331,309331,29368.130666255,33333.2553599048,1.31772860986913,103.845611935235,103.845611935235,St. Joseph's Institution Junior
PEI HWA PRESBYTERIAN PRIMARY SCHOOL,7,PEI WAH AVENUE,PEI HWA PRESBYTERIAN PRIMARY SCHOOL,7 PEI WAH AVENUE PEI HWA PRESBYTERIAN PRIMARY SCHOOL SINGAPORE 597610,597610,21632.898745548,35581.0631004851,1.33805634613048,103.776106448614,103.776106448614,Pei Hwa Presbyterian Primary School
ANGLO-CHINESE JUNIOR COLLEGE,25,DOVER CLOSE EAST,ANGLO-CHINESE JUNIOR COLLEGE,25 DOVER CLOSE EAST ANGLO-CHINESE JUNIOR COLLEGE SINGAPORE 139745,139745,22662.4720813679,31709.3940755054,1.30304255193392,103.785358436408,103.785358436408,Anglo-Chinese Junior College
NGEE ANN PRIMARY SCHOOL,344,MARINE TERRACE,NGEE ANN PRIMARY SCHOOL,344 MARINE TERRACE NGEE ANN PRIMARY SCHOOL SINGAPORE 449149,449149,37364.5041869488,31984.0027186833,1.30552505910497,103.917463017497,103.917463017497,Ngee Ann Primary School
CHIJ OUR LADY QUEEN OF PEACE,4A,CHESTNUT DRIVE,CHIJ OUR LADY QUEEN OF PEACE,4A CHESTNUT DRIVE CHIJ OUR LADY QUEEN OF PEACE SINGAPORE 679330,679330,20813.0919199651,38721.8321143519,1.36646014136363,103.768739256709,103.768739256709,CHIJ Our Lady Queen of Peace
TEMASEK PRIMARY SCHOOL,501,BEDOK SOUTH AVENUE 3,TEMASEK PRIMARY SCHOOL,501 BEDOK SOUTH AVENUE 3 TEMASEK PRIMARY SCHOOL SINGAPORE 469300,469300,40494.7969370941,33331.1191061512,1.31770677551333,103.945590669163,103.945590669163,Temasek Primary School
YU NENG PRIMARY SCHOOL,56,BEDOK NORTH STREET 3,YU NENG PRIMARY SCHOOL,56 BEDOK NORTH STREET 3 YU NENG PRIMARY SCHOOL SINGAPORE 469623,469623,38998.3352306299,35120.4393246993,1.33388930344069,103.932144857355,103.932144857355,Yu Neng Primary School
HOLY INNOCENTS' HIGH SCHOOL,1191,UPPER SERANGOON ROAD,HOLY INNOCENTS' HIGH SCHOOL,1191 UPPER SERANGOON ROAD HOLY INNOCENTS' HIGH SCHOOL SINGAPORE 534786,534786,35020.0627604807,39284.0954767819,1.37154508822261,103.896398814264,103.896398814264,Holy Innocents' High School
PAYA LEBAR METHODIST GIRLS' SCHOOL (PRIMARY),298,LORONG AH SOO,PAYA LEBAR METHODIST GIRLS' SCHOOL (PRIMARY),298 LORONG AH SOO PAYA LEBAR METHODIST GIRLS' SCHOOL (PRIMARY) SINGAPORE 536741,536741,33748.3760953182,36843.4187818952,1.34947276268396,103.884971343143,103.884971343143,Paya Lebar Methodist Girls' School (Primary)
BARTLEY SECONDARY SCHOOL,10,JALAN BUNGA RAMPAI,BARTLEY SECONDARY SCHOOL,10 JALAN BUNGA RAMPAI BARTLEY SECONDARY SCHOOL SINGAPORE 538403,538403,33507.4424001053,35790.8945052791,1.33995415587811,103.882806211705,103.882806211705,Bartley Secondary School
MERIDIAN SECONDARY SCHOOL,31,PASIR RIS STREET 51,MERIDIAN SECONDARY SCHOOL,31 PASIR RIS STREET 51 MERIDIAN SECONDARY SCHOOL SINGAPORE 518901,518901,40870.9016361358,38809.035507232,1.3672468492013,103.948972483629,103.948972483629,Meridian Secondary School
INNOVA PRIMARY SCHOOL,80,WOODLANDS DRIVE 17,INNOVA PRIMARY SCHOOL,80 WOODLANDS DRIVE 17 INNOVA PRIMARY SCHOOL SINGAPORE 737888,737888,23246.8971469188,45633.4723797198,1.42896700684852,103.790607539185,103.790607539185,Innova Primary School
JURONG WEST PRIMARY SCHOOL,30,JURONG WEST STREET 61,JURONG WEST PRIMARY SCHOOL,30 JURONG WEST STREET 61 JURONG WEST PRIMARY SCHOOL SINGAPORE 648368,648368,13029.9245329089,35705.1165225543,1.33917519796104,103.698803732244,103.698803732244,Jurong West Primary School
RED SWASTIKA SCHOOL,350,BEDOK NORTH AVENUE 3,RED SWASTIKA SCHOOL,350 BEDOK NORTH AVENUE 3 RED SWASTIKA SCHOOL SINGAPORE 469719,469719,39241.7795945574,35048.9817909673,1.33324297847732,103.934332314404,103.934332314404,Red Swastika School
BUKIT VIEW SECONDARY SCHOOL,16,BUKIT BATOK STREET 21,BUKIT VIEW SECONDARY SCHOOL,16 BUKIT BATOK STREET 21 BUKIT VIEW SECONDARY SCHOOL SINGAPORE 659633,659633,18975.3516749162,36429.990117576,1.3457330554294,103.752226593984,103.752226593984,Bukit View Secondary School
CHONGZHENG PRIMARY SCHOOL,1,TAMPINES STREET 21,CHONGZHENG PRIMARY SCHOOL,1 TAMPINES STREET 21 CHONGZHENG PRIMARY SCHOOL SINGAPORE 529392,529392,41141.094059418,36980.1959562805,1.35070739237744,103.951399541868,103.951399541868,Chongzheng Primary School
ANGLO-CHINESE SCHOOL (JUNIOR),16,WINSTEDT ROAD,ANGLO-CHINESE SCHOOL (JUNIOR),16 WINSTEDT ROAD ANGLO-CHINESE SCHOOL (JUNIOR) SINGAPORE 227988,227988,28849.3350947062,32406.8353125956,1.30935041274966,103.840950265464,103.840950265464,Anglo-Chinese School (Junior)
HOUGANG SECONDARY SCHOOL,2,HOUGANG STREET 93,HOUGANG SECONDARY SCHOOL,2 HOUGANG STREET 93 HOUGANG SECONDARY SCHOOL SINGAPORE 534256,534256,33477.0592164416,39958.0252705514,1.37764019332164,103.882533963338,103.882533963338,Hougang Secondary School
MONTFORT JUNIOR SCHOOL,52,HOUGANG AVENUE 8,MONTFORT JUNIOR SCHOOL,52 HOUGANG AVENUE 8 MONTFORT JUNIOR SCHOOL SINGAPORE 538786,538786,34230.9110763939,39536.1151842475,1.37382444075979,103.889307782925,103.889307782925,Montfort Junior School
ROSYTH SCHOOL,21,SERANGOON NORTH AVENUE 4,ROSYTH SCHOOL,21 SERANGOON NORTH AVENUE 4 ROSYTH SCHOOL SINGAPORE 555855,555855,32638.8043574626,39432.8315618001,1.37289067499064,103.875001549174,103.875001549174,Rosyth School
RAFFLES GIRLS' PRIMARY SCHOOL,21,HILLCREST ROAD,RAFFLES GIRLS' PRIMARY SCHOOL,21 HILLCREST ROAD RAFFLES GIRLS' PRIMARY SCHOOL SINGAPORE 289072,289072,25009.0146507286,34624.3017604016,1.3294042600012,103.806442915912,103.806442915912,Raffles Girls' Primary School
COMPASSVALE SECONDARY SCHOOL,51,COMPASSVALE CRESCENT,COMPASSVALE SECONDARY SCHOOL,51 COMPASSVALE CRESCENT COMPASSVALE SECONDARY SCHOOL SINGAPORE 545083,545083,35403.746108626,42003.7810229771,1.39614083952009,103.899847164494,103.899847164494,Compassvale Secondary School
MAYFLOWER SECONDARY SCHOOL,2,ANG MO KIO STREET 21,MAYFLOWER SECONDARY SCHOOL,2 ANG MO KIO STREET 21 MAYFLOWER SECONDARY SCHOOL SINGAPORE 569384,569384,28227.2664945051,38922.1548925955,1.36827266209722,103.835360726863,103.835360726863,Mayflower Secondary School
TAMPINES SECONDARY SCHOOL,252,TAMPINES STREET 12,TAMPINES SECONDARY SCHOOL,252 TAMPINES STREET 12 TAMPINES SECONDARY SCHOOL SINGAPORE 529427,529427,40346.96177861,36820.2178275529,1.34926094811197,103.944263709507,103.944263709507,Tampines Secondary School
PAYA LEBAR METHODIST GIRLS' SCHOOL (SECONDARY),296,LORONG AH SOO,PAYA LEBAR METHODIST GIRLS' SCHOOL (SECONDARY),296 LORONG AH SOO PAYA LEBAR METHODIST GIRLS' SCHOOL (SECONDARY) SINGAPORE 536742,536742,33764.9220583495,37008.7061571106,1.35096755912522,103.885120050588,103.885120050588,Methodist Girls' School (Secondary)
JURONGVILLE SECONDARY SCHOOL,202,JURONG EAST AVENUE 1,JURONGVILLE SECONDARY SCHOOL,202 JURONG EAST AVENUE 1 JURONGVILLE SECONDARY SCHOOL SINGAPORE 609790,609790,16380.2394942129,37044.3966198433,1.35128862770284,103.728907710089,103.728907710089,Jurongville Secondary School
YISHUN PRIMARY SCHOOL,500,YISHUN RING ROAD,YISHUN PRIMARY SCHOOL,500 YISHUN RING ROAD YISHUN PRIMARY SCHOOL SINGAPORE 768679,768679,28085.526611778,46122.0615023617,1.43338602975674,103.834087115915,103.834087115915,Yishun Primary School
EUNOS PRIMARY SCHOOL,95,JALAN EUNOS,EUNOS PRIMARY SCHOOL,95 JALAN EUNOS EUNOS PRIMARY SCHOOL SINGAPORE 419529,419529,35926.3698536828,34079.4906147029,1.32447629876368,103.904541254016,103.904541254016,Eunos Primary School
PEIYING PRIMARY SCHOOL,651,YISHUN RING ROAD,PEIYING PRIMARY SCHOOL,651 YISHUN RING ROAD PEIYING PRIMARY SCHOOL SINGAPORE 768687,768687,27677.1059972411,44335.9849220216,1.41723339695904,103.830417090698,103.830417090698,Peiying Primary School
WATERWAY PRIMARY SCHOOL,70,PUNGGOL DRIVE,WATERWAY PRIMARY SCHOOL,70 PUNGGOL DRIVE WATERWAY PRIMARY SCHOOL SINGAPORE 828802,828802,37493.0794339096,42300.9820826855,1.39882800626578,103.918621581556,103.918621581556,Waterway Primary School
CASUARINA PRIMARY SCHOOL,30,PASIR RIS STREET 41,CASUARINA PRIMARY SCHOOL,30 PASIR RIS STREET 41 CASUARINA PRIMARY SCHOOL SINGAPORE 518935,518935,41766.4977676729,39385.5958609674,1.37246063927999,103.957020286115,103.957020286115,Casuarina Primary School
CHRIST CHURCH SECONDARY SCHOOL,20,WOODLANDS DRIVE 17,CHRIST CHURCH SECONDARY SCHOOL,20 WOODLANDS DRIVE 17 CHRIST CHURCH SECONDARY SCHOOL SINGAPORE 737924,737924,23563.3391703926,45368.1754093207,1.42656780901455,103.793451105242,103.793451105242,Christ Church Secondary School
SAINT ANTHONY'S PRIMARY SCHOOL,30,BUKIT BATOK STREET 32,SAINT ANTHONY'S PRIMARY SCHOOL,30 BUKIT BATOK STREET 32 SAINT ANTHONY'S PRIMARY SCHOOL SINGAPORE 659401,659401,18644.3733009221,38463.0810494516,1.36411948475833,103.749251919049,103.749251919049,St. Anthony's Primary School
XINGHUA PRIMARY SCHOOL,45,HOUGANG AVENUE 1,XINGHUA PRIMARY SCHOOL,45 HOUGANG AVENUE 1 XINGHUA PRIMARY SCHOOL SINGAPORE 538882,538882,34360.61483486,37776.2619072273,1.35790893589535,103.890472887906,103.890472887906,Xinghua Primary School
TEMASEK JUNIOR COLLEGE,22,BEDOK SOUTH ROAD,TEMASEK JUNIOR COLLEGE,22 BEDOK SOUTH ROAD TEMASEK JUNIOR COLLEGE SINGAPORE 469278,469278,39379.2891936116,33417.989127459,1.31849283027837,103.935567309385,103.935567309385,Temasek Junior College
EUNOIA JUNIOR COLLEGE,2,SIN MING PLACE,EUNOIA JUNIOR COLLEGE,2 SIN MING PLACE EUNOIA JUNIOR COLLEGE SINGAPORE 573838,573838,28886.6991347941,38243.7692278698,1.36213757183547,103.841286169122,103.841286169122,Eunoia Junior College
EDGEFIELD SECONDARY SCHOOL,36,PUNGGOL FIELD,EDGEFIELD SECONDARY SCHOOL,36 PUNGGOL FIELD EDGEFIELD SECONDARY SCHOOL SINGAPORE 828814,828814,35719.8105087345,42496.0989190713,1.40059309981824,103.902687385465,103.902687385465,Edgefield Secondary School
TANJONG KATONG SECONDARY SCHOOL,130,HAIG ROAD,TANJONG KATONG SECONDARY SCHOOL,130 HAIG ROAD TANJONG KATONG SECONDARY SCHOOL SINGAPORE 438796,438796,35112.2101863576,32338.8930419572,1.30873515955341,103.897225196199,103.897225196199,Tanjong Katong Secondary School
FAIRFIELD METHODIST SCHOOL (PRIMARY),100,DOVER ROAD,FAIRFIELD METHODIST SCHOOL (PRIMARY),100 DOVER ROAD FAIRFIELD METHODIST SCHOOL (PRIMARY) SINGAPORE 139648,139648,22671.3515878748,31432.7656800412,1.30054082453424,103.785438270044,103.785438270044,Fairfield Methodist School (Primary)
PUNGGOL VIEW PRIMARY SCHOOL,9,PUNGGOL PLACE,PUNGGOL VIEW PRIMARY SCHOOL,9 PUNGGOL PLACE PUNGGOL VIEW PRIMARY SCHOOL SINGAPORE 828845,828845,35994.5599585725,42999.5250743832,1.40514582647962,103.905156371376,103.905156371376,Punggol View Primary School
SEMBAWANG SECONDARY SCHOOL,30,SEMBAWANG CRESCENT,SEMBAWANG SECONDARY SCHOOL,30 SEMBAWANG CRESCENT SEMBAWANG SECONDARY SCHOOL SINGAPORE 757704,757704,26166.5553010562,47441.1161091775,1.44531502131387,103.816843258118,103.816843258118,Sembawang Secondary School
CHIJ PRIMARY (TOA PAYOH),628,LORONG 1 TOA PAYOH,CHIJ PRIMARY (TOA PAYOH),628 LORONG 1 TOA PAYOH CHIJ PRIMARY (TOA PAYOH) SINGAPORE 319765,319765,28949.1537291808,34994.5345916729,1.33275264711587,103.841847263786,103.841847263786,CHIJ Primary (Toa Payoh)
WEST GROVE PRIMARY SCHOOL,1,JURONG WEST STREET 72,WEST GROVE PRIMARY SCHOOL,1 JURONG WEST STREET 72 WEST GROVE PRIMARY SCHOOL SINGAPORE 649223,649223,13083.6706046276,36335.8187624309,1.3448790560014,103.699286360581,103.699286360581,West Grove Primary School
AI TONG SCHOOL,100,BRIGHT HILL DRIVE,AI TONG SCHOOL,100 BRIGHT HILL DRIVE AI TONG SCHOOL SINGAPORE 579646,579646,27966.8088298785,38071.9191181567,1.3605834338904,103.833020333986,103.833020333986,Ai Tong School
GREENRIDGE SECONDARY SCHOOL,32,BUKIT PANJANG RING ROAD,GREENRIDGE SECONDARY SCHOOL,32 BUKIT PANJANG RING ROAD GREENRIDGE SECONDARY SCHOOL SINGAPORE 679938,679938,21379.5029344708,40425.1360503398,1.38186433722811,103.773828466913,103.773828466913,Greenridge Secondary School
JURONG WEST SECONDARY SCHOOL,61,JURONG WEST STREET 65,JURONG WEST SECONDARY SCHOOL,61 JURONG WEST STREET 65 JURONG WEST SECONDARY SCHOOL SINGAPORE 648348,648348,13396.6197330486,35271.7690127064,1.33525634688323,103.702098904443,103.702098904443,Jurong West Secondary School
NORTH VIEW PRIMARY SCHOOL,210,YISHUN AVENUE 6,NORTH VIEW PRIMARY SCHOOL,210 YISHUN AVENUE 6 NORTH VIEW PRIMARY SCHOOL SINGAPORE 768960,768960,29655.0564113865,45473.7925722394,1.42752327193727,103.848190787869,103.848190787869,North View Primary School
ANG MO KIO PRIMARY SCHOOL,20,ANG MO KIO AVENUE 3,ANG MO KIO PRIMARY SCHOOL,20 ANG MO KIO AVENUE 3 ANG MO KIO PRIMARY SCHOOL SINGAPORE 569920,569920,28702.4804675551,39038.1602696702,1.36932176584608,103.839630858752,103.839630858752,Ang Mo Kio Primary School
YEW TEE PRIMARY SCHOOL,10,CHOA CHU KANG STREET 64,YEW TEE PRIMARY SCHOOL,10 CHOA CHU KANG STREET 64 YEW TEE PRIMARY SCHOOL SINGAPORE 689100,689100,18837.4775282657,42072.9649468437,1.39676600905037,103.750985967346,103.750985967346,Yew Tee Primary School
MANJUSRI SECONDARY SCHOOL,20,UBI AVENUE 1,MANJUSRI SECONDARY SCHOOL,20 UBI AVENUE 1 MANJUSRI SECONDARY SCHOOL SINGAPORE 408940,408940,35612.3792342106,34410.6462380104,1.32747123084846,103.901719963831,103.901719963831,Manjusri Secondary School
NAVAL BASE SECONDARY SCHOOL,901,YISHUN RING ROAD,NAVAL BASE SECONDARY SCHOOL,901 YISHUN RING ROAD NAVAL BASE SECONDARY SCHOOL SINGAPORE 768689,768689,27747.583393123,44573.2144819219,1.41937881620441,103.831050390247,103.831050390247,Naval Base Secondary School
COMMONWEALTH SECONDARY SCHOOL,698,WEST COAST ROAD,COMMONWEALTH SECONDARY SCHOOL,698 WEST COAST ROAD COMMONWEALTH SECONDARY SCHOOL SINGAPORE 608784,608784,18241.9409345519,33496.5605151355,1.31920395934801,103.745637393049,103.745637393049,Commonwealth Secondary School
GAN ENG SENG SCHOOL,1,HENDERSON ROAD,GAN ENG SENG SCHOOL,1 HENDERSON ROAD GAN ENG SENG SCHOOL SINGAPORE 159561,159561,26933.2813452026,30164.4591011573,1.28907114485773,103.823733673089,103.823733673089,Gan Eng Seng School
CHONGFU SCHOOL,170,YISHUN AVENUE 6,CHONGFU SCHOOL,170 YISHUN AVENUE 6 CHONGFU SCHOOL SINGAPORE 768959,768959,28666.6613053558,46675.9986570273,1.43839562897006,103.839309173817,103.839309173817,Chongfu School
YIO CHU KANG SECONDARY SCHOOL,3063,ANG MO KIO AVENUE 5,YIO CHU KANG SECONDARY SCHOOL,3063 ANG MO KIO AVENUE 5 YIO CHU KANG SECONDARY SCHOOL SINGAPORE 569868,569868,28981.3761166064,39995.0998579115,1.37797597740925,103.84213696352,103.84213696352,Yio Chu Kang Secondary School
SAINT HILDA'S SECONDARY SCHOOL,2,TAMPINES STREET 82,SAINT HILDA'S SECONDARY SCHOOL,2 TAMPINES STREET 82 SAINT HILDA'S SECONDARY SCHOOL SINGAPORE 528986,528986,39606.2556369342,36873.0704489276,1.34973922385379,103.937608032148,103.937608032148,St. Hilda's Secondary School
BENDEMEER SECONDARY SCHOOL,1,SAINT WILFRED ROAD,BENDEMEER SECONDARY SCHOOL,1 SAINT WILFRED ROAD BENDEMEER SECONDARY SCHOOL SINGAPORE 327919,327919,31077.3568056701,34094.3010115474,1.32461111307996,103.860970284401,103.860970284401,Bendemeer Secondary School
BEDOK GREEN SECONDARY SCHOOL,360,BEDOK NORTH AVENUE 3,BEDOK GREEN SECONDARY SCHOOL,360 BEDOK NORTH AVENUE 3 BEDOK GREEN SECONDARY SCHOOL SINGAPORE 469722,469722,39319.2390878517,35190.1334154308,1.33451947288431,103.935028383346,103.935028383346,Bedok Green Secondary School
ANCHOR GREEN PRIMARY SCHOOL,31,ANCHORVALE DRIVE,ANCHOR GREEN PRIMARY SCHOOL,31 ANCHORVALE DRIVE ANCHOR GREEN PRIMARY SCHOOL SINGAPORE 544969,544969,33992.4459471293,41365.6329499111,1.39036998654612,103.887165375933,103.887165375933,Anchor Green Primary School
TELOK KURAU PRIMARY SCHOOL,50,BEDOK RESERVOIR ROAD,TELOK KURAU PRIMARY SCHOOL,50 BEDOK RESERVOIR ROAD TELOK KURAU PRIMARY SCHOOL SINGAPORE 479239,479239,36637.797290422,34805.9404149763,1.33104585441349,103.910934011337,103.910934011337,Telok Kurau Primary School
XISHAN PRIMARY SCHOOL,8,YISHUN STREET 21,XISHAN PRIMARY SCHOOL,8 YISHUN STREET 21 XISHAN PRIMARY SCHOOL SINGAPORE 768611,768611,28493.7422212623,46131.5536631271,1.43347186925064,103.837755319448,103.837755319448,Xishan Primary School
NGEE ANN SECONDARY SCHOOL,1,TAMPINES STREET 32,NGEE ANN SECONDARY SCHOOL,1 TAMPINES STREET 32 NGEE ANN SECONDARY SCHOOL SINGAPORE 529283,529283,41736.2154369308,37396.8577860836,1.35447525755806,103.956747262496,103.956747262496,Ngee Ann Secondary School
DUNMAN SECONDARY SCHOOL,21,TAMPINES STREET 45,DUNMAN SECONDARY SCHOOL,21 TAMPINES STREET 45 DUNMAN SECONDARY SCHOOL SINGAPORE 529093,529093,41676.8242046405,38079.9135282841,1.36065258337022,103.956213906966,103.956213906966,Dunman Secondary School
ANGSANA PRIMARY SCHOOL,3,TAMPINES STREET 22,ANGSANA PRIMARY SCHOOL,3 TAMPINES STREET 22 ANGSANA PRIMARY SCHOOL SINGAPORE 529366,529366,41186.5743079996,36741.9621954821,1.34855287558648,103.951808105552,103.951808105552,Angsana Primary School
PASIR RIS CREST SECONDARY SCHOOL,11,PASIR RIS STREET 41,PASIR RIS CREST SECONDARY SCHOOL,11 PASIR RIS STREET 41 PASIR RIS CREST SECONDARY SCHOOL SINGAPORE 518934,518934,42067.8542885976,39427.6259528883,1.37284060102246,103.959728202919,103.959728202919,Pasir Ris Crest Secondary School
VICTORIA JUNIOR COLLEGE,20,MARINE VISTA,VICTORIA JUNIOR COLLEGE,20 MARINE VISTA VICTORIA JUNIOR COLLEGE SINGAPORE 449035,449035,37644.9179267231,32114.1239029113,1.30670174177479,103.919982704149,103.919982704149,Victoria Junior College
CATHOLIC HIGH SCHOOL,9,BISHAN STREET 22,CATHOLIC HIGH SCHOOL,9 BISHAN STREET 22 CATHOLIC HIGH SCHOOL SINGAPORE 579767,579767,29286.0617525242,37423.9135497604,1.3547230747166,103.844874676599,103.844874676599,Catholic High School
UNITY SECONDARY SCHOOL,20,CHOA CHU KANG STREET 62,UNITY SECONDARY SCHOOL,20 CHOA CHU KANG STREET 62 UNITY SECONDARY SCHOOL SINGAPORE 689143,689143,18284.9462911766,42432.2689475045,1.40001524119441,103.74602091483,103.74602091483,Unity Secondary School
NORTH VISTA SECONDARY SCHOOL,11,RIVERVALE LINK,NORTH VISTA SECONDARY SCHOOL,11 RIVERVALE LINK NORTH VISTA SECONDARY SCHOOL SINGAPORE 545081,545081,35330.5266452944,40344.0974890441,1.381131285358,103.899188813886,103.899188813886,North Vista Secondary School
MARSILING PRIMARY SCHOOL,31,WOODLANDS CENTRE ROAD,MARSILING PRIMARY SCHOOL,31 WOODLANDS CENTRE ROAD MARSILING PRIMARY SCHOOL SINGAPORE 738927,738927,21359.011448958,46172.2397052329,1.43383904037059,103.773643013846,103.773643013846,Marsiling Primary School
ADMIRALTY PRIMARY SCHOOL,11,WOODLANDS CIRCLE,ADMIRALTY PRIMARY SCHOOL,11 WOODLANDS CIRCLE ADMIRALTY PRIMARY SCHOOL SINGAPORE 738907,738907,24296.6250855923,47144.7700594738,1.4426347903311,103.800040119743,103.800040119743,Admiralty Primary School
BEDOK VIEW SECONDARY SCHOOL,6,BEDOK SOUTH AVENUE 3,BEDOK VIEW SECONDARY SCHOOL,6 BEDOK SOUTH AVENUE 3 BEDOK VIEW SECONDARY SCHOOL SINGAPORE 469293,469293,40292.8371452186,34044.3485775683,1.32415704029686,103.943776245024,103.943776245024,Bedok View Secondary School
PUNGGOL PRIMARY SCHOOL,61,HOUGANG AVENUE 8,PUNGGOL PRIMARY SCHOOL,61 HOUGANG AVENUE 8 PUNGGOL PRIMARY SCHOOL SINGAPORE 538787,538787,34809.5016854042,39975.1199013237,1.37779451191095,103.894506933668,103.894506933668,Punggol Primary School
YUSOF ISHAK SECONDARY SCHOOL,8,SUMANG WALK,YUSOF ISHAK SECONDARY SCHOOL,8 SUMANG WALK YUSOF ISHAK SECONDARY SCHOOL SINGAPORE 828676,828676,35006.1961496361,43197.5583218038,1.40693702458178,103.896275149571,103.896275149571,Yusof Ishak Secondary School
CHIJ OUR LADY OF GOOD COUNSEL,2C,BURGHLEY DRIVE,CHIJ OUR LADY OF GOOD COUNSEL,2C BURGHLEY DRIVE CHIJ OUR LADY OF GOOD COUNSEL SINGAPORE 558979,558979,31415.5340866428,37723.1973494291,1.35742952269615,103.864009397373,103.864009397373,CHIJ Our Lady of Good Counsel
MARIS STELLA HIGH SCHOOL,80,BARTLEY ROAD,MARIS STELLA HIGH SCHOOL,80 BARTLEY ROAD MARIS STELLA HIGH SCHOOL SINGAPORE 539786,539786,32983.2916958053,36037.4445459433,1.34218395739981,103.87809644863,103.87809644863,Maris Stella High School
PRESBYTERIAN HIGH SCHOOL,5209,ANG MO KIO AVENUE 6,PRESBYTERIAN HIGH SCHOOL,5209 ANG MO KIO AVENUE 6 PRESBYTERIAN HIGH SCHOOL SINGAPORE 569845,569845,29094.0439036526,40441.3768212926,1.38201194250223,103.843149382823,103.843149382823,Presbyterian High School
FIRST TOA PAYOH PRIMARY SCHOOL,7,LORONG 8 TOA PAYOH,FIRST TOA PAYOH PRIMARY SCHOOL,7 LORONG 8 TOA PAYOH FIRST TOA PAYOH PRIMARY SCHOOL SINGAPORE 319252,319252,30471.8817195026,35831.634454662,1.34032299499938,103.855529906182,103.855529906182,First Toa Payoh Primary School
REPUBLIC POLYTECHNIC,27,WOODLANDS AVENUE 9,REPUBLIC POLYTECHNIC,27 WOODLANDS AVENUE 9 REPUBLIC POLYTECHNIC SINGAPORE 737909,737909,22663.2290231045,47402.8121876605,1.44496816514049,103.785362406892,103.785362406892,Republic Polytechnic
RIVER VALLEY HIGH SCHOOL,6,BOON LAY AVENUE,RIVER VALLEY HIGH SCHOOL,6 BOON LAY AVENUE RIVER VALLEY HIGH SCHOOL SINGAPORE 649961,649961,14167.1561531294,36247.1858126801,1.34407801149725,103.709022156436,103.709022156436,River Valley High School
QUEENSTOWN PRIMARY SCHOOL,310,MARGARET DRIVE,QUEENSTOWN PRIMARY SCHOOL,310 MARGARET DRIVE QUEENSTOWN PRIMARY SCHOOL SINGAPORE 149303,149303,25132.029336133,30885.6966638304,1.29559365009015,103.807548617332,103.807548617332,Queenstown Primary School
SPRINGDALE PRIMARY SCHOOL,71,ANCHORVALE LINK,SPRINGDALE PRIMARY SCHOOL,71 ANCHORVALE LINK SPRINGDALE PRIMARY SCHOOL SINGAPORE 544799,544799,34299.680692099,41841.1254489459,1.39467010299293,103.889926221247,103.889926221247,Springdale Primary School
FUHUA PRIMARY SCHOOL,65,JURONG EAST STREET 13,FUHUA PRIMARY SCHOOL,65 JURONG EAST STREET 13 FUHUA PRIMARY SCHOOL SINGAPORE 609647,609647,17181.0134181511,35409.5467255618,1.33650394789627,103.736103745748,103.736103745748,Fuhua Primary School
NUS HIGH SCHOOL OF MATHEMATICS AND SCIENCE,20,CLEMENTI AVENUE 1,NUS HIGH SCHOOL OF MATHEMATICS AND SCIENCE,20 CLEMENTI AVENUE 1 NUS HIGH SCHOOL OF MATHEMATICS AND SCIENCE SINGAPORE 129957,129957,20882.5747099025,32098.8705946617,1.30656448055686,103.769365156929,103.769365156929,NUS High School of Mathematics and Science
NANYANG JUNIOR COLLEGE,128,SERANGOON AVENUE 3,NANYANG JUNIOR COLLEGE,128 SERANGOON AVENUE 3 NANYANG JUNIOR COLLEGE SINGAPORE 556111,556111,31692.5780312549,36932.9914012011,1.35028314949236,103.866498721912,103.866498721912,Nanyang Junior College
HOLY INNOCENTS' PRIMARY SCHOOL,5,LORONG LOW KOON,HOLY INNOCENTS' PRIMARY SCHOOL,5 LORONG LOW KOON HOLY INNOCENTS' PRIMARY SCHOOL SINGAPORE 536451,536451,34765.9036816582,38774.6943912152,1.36693830877349,103.894114899795,103.894114899795,Holy Innocents' Primary School
CHIJ SAINT THERESA'S CONVENT,160,LOWER DELTA ROAD,CHIJ SAINT THERESA'S CONVENT,160 LOWER DELTA ROAD CHIJ SAINT THERESA'S CONVENT SINGAPORE 099138,099138,26789.3781491434,28647.4426490944,1.27535177510054,103.822440701642,103.822440701642,CHIJ St. Theresa's Convent
VICTORIA SCHOOL,4,SIGLAP LINK,VICTORIA SCHOOL,4 SIGLAP LINK VICTORIA SCHOOL SINGAPORE 448879,448879,38559.1474527884,32291.7732675001,1.30830803913148,103.928197539607,103.928197539607,Victoria School
PIONEER PRIMARY SCHOOL,31,JURONG WEST STREET 91,PIONEER PRIMARY SCHOOL,31 JURONG WEST STREET 91 PIONEER PRIMARY SCHOOL SINGAPORE 649037,649037,11801.9417791683,35688.3182758801,1.33902264667589,103.687769623983,103.687769623983,Pioneer Primary School
WEST VIEW PRIMARY SCHOOL,31,SENJA ROAD,WEST VIEW PRIMARY SCHOOL,31 SENJA ROAD WEST VIEW PRIMARY SCHOOL SINGAPORE 677742,677742,19867.3321747258,40625.4829824362,1.3836758200336,103.760240434318,103.760240434318,West View Primary School
WOODGROVE PRIMARY SCHOOL,2,WOODLANDS DRIVE 14,WOODGROVE PRIMARY SCHOOL,2 WOODLANDS DRIVE 14 WOODGROVE PRIMARY SCHOOL SINGAPORE 738079,738079,23246.5605064044,46090.8542425744,1.43310340168966,103.790604437613,103.790604437613,Woodgrove Primary School
SAINT PATRICK'S SCHOOL,498,EAST COAST ROAD,SAINT PATRICK'S SCHOOL,498 EAST COAST ROAD SAINT PATRICK'S SCHOOL SINGAPORE 429102,429102,37287.1967600044,32222.7172864024,1.30768393050916,103.916768445926,103.916768445926,St. Patrick's School
JURONG PIONEER JUNIOR COLLEGE,21,TECK WHYE WALK,JURONG PIONEER JUNIOR COLLEGE,21 TECK WHYE WALK JURONG PIONEER JUNIOR COLLEGE SINGAPORE 688258,688258,19214.5432963269,40702.7122574467,1.38437406410733,103.75437461519,103.75437461519,Jurong Pioneer Junior College
BENDEMEER PRIMARY SCHOOL,91,BENDEMEER ROAD,BENDEMEER PRIMARY SCHOOL,91 BENDEMEER ROAD BENDEMEER PRIMARY SCHOOL SINGAPORE 339948,339948,31570.8074810533,33784.8514976725,1.32181250780475,103.865404167629,103.865404167629,Bendemeer Primary School
RAFFLES INSTITUTION,1,RAFFLES INSTITUTION LANE,RAFFLES INSTITUTION,1 RAFFLES INSTITUTION LANE RAFFLES INSTITUTION SINGAPORE 575954,575954,29397.4034992037,36480.122403916,1.34618775847486,103.845875110532,103.845875110532,Raffles Institution
DE LA SALLE SCHOOL,11,CHOA CHU KANG STREET 52,DE LA SALLE SCHOOL,11 CHOA CHU KANG STREET 52 DE LA SALLE SCHOOL SINGAPORE 689285,689285,17971.195454672,41845.4133931287,1.3947078296399,103.743201812831,103.743201812831,De La Salle School
TECK WHYE SECONDARY SCHOOL,31,TECK WHYE CRESCENT,TECK WHYE SECONDARY SCHOOL,31 TECK WHYE CRESCENT TECK WHYE SECONDARY SCHOOL SINGAPORE 688848,688848,19295.6301955935,40587.7294842005,1.38333422637073,103.75510327583,103.75510327583,Teck Whye Secondary School
NATIONAL JUNIOR COLLEGE,37,HILLCREST ROAD,NATIONAL JUNIOR COLLEGE,37 HILLCREST ROAD NATIONAL JUNIOR COLLEGE SINGAPORE 288913,288913,24749.4869699022,34722.5671630222,1.33029291072172,103.804110905425,103.804110905425,National Junior College
TEMASEK SECONDARY SCHOOL,600,UPPER EAST COAST ROAD,TEMASEK SECONDARY SCHOOL,600 UPPER EAST COAST ROAD TEMASEK SECONDARY SCHOOL SINGAPORE 465561,465561,40714.4313851139,33133.1948234718,1.31591673150616,103.947564112022,103.947564112022,Temasek Secondary School
GONGSHANG PRIMARY SCHOOL,1,TAMPINES STREET 42,GONGSHANG PRIMARY SCHOOL,1 TAMPINES STREET 42 GONGSHANG PRIMARY SCHOOL SINGAPORE 529176,529176,40886.8508355999,37702.2195482217,1.35723721393297,103.949115320172,103.949115320172,Gongshang Primary School
LAKESIDE PRIMARY SCHOOL,161,CORPORATION WALK,LAKESIDE PRIMARY SCHOOL,161 CORPORATION WALK LAKESIDE PRIMARY SCHOOL SINGAPORE 618310,618310,15176.2291954523,35597.6143301465,1.33820397704287,103.718089546664,103.718089546664,Lakeside Primary School
EAST SPRING SECONDARY SCHOOL,30,TAMPINES STREET 34,EAST SPRING SECONDARY SCHOOL,30 TAMPINES STREET 34 EAST SPRING SECONDARY SCHOOL SINGAPORE 529231,529231,42169.5015330398,37590.3682097681,1.35622508992581,103.960640700298,103.960640700298,East Spring Secondary School
NORTHLAND SECONDARY SCHOOL,3,YISHUN STREET 22,NORTHLAND SECONDARY SCHOOL,3 YISHUN STREET 22 NORTHLAND SECONDARY SCHOOL SINGAPORE 768578,768578,28755.1906477995,46389.1900489908,1.43580183362637,103.840104687784,103.840104687784,Northland Secondary School
HILLGROVE SECONDARY SCHOOL,10,BUKIT BATOK STREET 52,HILLGROVE SECONDARY SCHOOL,10 BUKIT BATOK STREET 52 HILLGROVE SECONDARY SCHOOL SINGAPORE 659250,659250,19059.9452109011,37204.3120635767,1.35273576615912,103.752986488399,103.752986488399,Hillgrove Secondary School
WOODLANDS SECONDARY SCHOOL,11,MARSILING ROAD,WOODLANDS SECONDARY SCHOOL,11 MARSILING ROAD WOODLANDS SECONDARY SCHOOL SINGAPORE 739111,739111,21464.012295193,46756.7632628027,1.43912528141356,103.774586410437,103.774586410437,Woodlands Secondary School
CHANGKAT PRIMARY SCHOOL,11,SIMEI STREET 3,CHANGKAT PRIMARY SCHOOL,11 SIMEI STREET 3 CHANGKAT PRIMARY SCHOOL SINGAPORE 529896,529896,41216.8906296864,35821.8419446945,1.34023163951633,103.952080114035,103.952080114035,Changkat Primary School
SPRINGFIELD SECONDARY SCHOOL,30,TAMPINES AVENUE 8,SPRINGFIELD SECONDARY SCHOOL,30 TAMPINES AVENUE 8 SPRINGFIELD SECONDARY SCHOOL SINGAPORE 529593,529593,38799.0137778232,36854.6606742647,1.34957303471476,103.930354460693,103.930354460693,Springfield Secondary School
SINGAPORE INSTITUTE OF TECHNOLOGY,17,NEW PUNGGOL ROAD,SINGAPORE INSTITUTE OF TECHNOLOGY,17 NEW PUNGGOL ROAD SINGAPORE INSTITUTE OF TECHNOLOGY SINGAPORE 829981,829981,36370.3677589614,43915.1233792081,1.41342605367724,103.908533581747,103.908533581747,Singapore Institute of Technology
FAJAR SECONDARY SCHOOL,31,GANGSA ROAD,FAJAR SECONDARY SCHOOL,31 GANGSA ROAD FAJAR SECONDARY SCHOOL SINGAPORE 678972,678972,20285.5773530258,39732.4925308134,1.375600053443,103.763998914082,103.763998914082,Fajar Secondary School
RAFFLES GIRLS' SCHOOL (SECONDARY),2,BRADDELL RISE,RAFFLES GIRLS' SCHOOL (SECONDARY),2 BRADDELL RISE RAFFLES GIRLS' SCHOOL (SECONDARY) SINGAPORE 318871,318871,29092.3551620366,36036.388495991,1.34217479932295,103.84313404727,103.84313404727,Raffles Girls' School (Secondary)
JUYING SECONDARY SCHOOL,33,JURONG WEST STREET 91,JUYING SECONDARY SCHOOL,33 JURONG WEST STREET 91 JUYING SECONDARY SCHOOL SINGAPORE 649038,649038,11750.8178531462,35655.1627567839,1.3387227734133,103.687310264575,103.687310264575,Juying Secondary School
HUA YI SECONDARY SCHOOL,60,JURONG WEST STREET 42,HUA YI SECONDARY SCHOOL,60 JURONG WEST STREET 42 HUA YI SECONDARY SCHOOL SINGAPORE 649371,649371,15592.8322145641,37161.0913502462,1.35234365488339,103.721832320169,103.721832320169,Hua Yi Secondary School
AHMAD IBRAHIM SECONDARY SCHOOL,751,YISHUN AVENUE 7,AHMAD IBRAHIM SECONDARY SCHOOL,751 YISHUN AVENUE 7 AHMAD IBRAHIM SECONDARY SCHOOL SINGAPORE 768928,768928,27599.3872889336,46417.7087551262,1.43605975368804,103.829718690077,103.829718690077,Ahmad Ibrahim Secondary School
PEI TONG PRIMARY SCHOOL,15,CLEMENTI AVENUE 5,PEI TONG PRIMARY SCHOOL,15 CLEMENTI AVENUE 5 PEI TONG PRIMARY SCHOOL SINGAPORE 129857,129857,20686.1367668323,33164.0863881912,1.31619786415976,103.767599818844,103.767599818844,Pei Tong Primary School
JUNYUAN PRIMARY SCHOOL,2,TAMPINES STREET 91,JUNYUAN PRIMARY SCHOOL,2 TAMPINES STREET 91 JUNYUAN PRIMARY SCHOOL SINGAPORE 528906,528906,39785.8491141181,36666.4713015798,1.34787074766746,103.939221709073,103.939221709073,Junyuan Primary School
PALM VIEW PRIMARY SCHOOL,150,COMPASSVALE BOW,PALM VIEW PRIMARY SCHOOL,150 COMPASSVALE BOW PALM VIEW PRIMARY SCHOOL SINGAPORE 544822,544822,34458.6783197625,40635.7654705234,1.38376923022123,103.891354675017,103.891354675017,Palm View Primary School
FARRER PARK PRIMARY SCHOOL,2,FARRER PARK ROAD,FARRER PARK PRIMARY SCHOOL,2 FARRER PARK ROAD FARRER PARK PRIMARY SCHOOL SINGAPORE 217567,217567,29941.7768185176,32740.5849021059,1.31236867681371,103.850766402965,103.850766402965,Farrer Park Primary School
HAI SING CATHOLIC SCHOOL,9,PASIR RIS DRIVE 6,HAI SING CATHOLIC SCHOOL,9 PASIR RIS DRIVE 6 HAI SING CATHOLIC SCHOOL SINGAPORE 519421,519421,41536.9732257053,39594.1036770996,1.37434641160381,103.954957944437,103.954957944437,Hai Sing Catholic School
RIVERSIDE PRIMARY SCHOOL,110,WOODLANDS CRESCENT,RIVERSIDE PRIMARY SCHOOL,110 WOODLANDS CRESCENT RIVERSIDE PRIMARY SCHOOL SINGAPORE 737803,737803,24496.0361921666,47632.6851746552,1.44704734253719,103.801831963297,103.801831963297,Riverside Primary School
VALOUR PRIMARY SCHOOL,49,PUNGGOL CENTRAL,VALOUR PRIMARY SCHOOL,49 PUNGGOL CENTRAL VALOUR PRIMARY SCHOOL SINGAPORE 828728,828728,35318.1306347065,43186.3631934691,1.40683570215319,103.899078139493,103.899078139493,Valour Primary School
CHIJ SECONDARY (TOA PAYOH),626,LORONG 1 TOA PAYOH,CHIJ SECONDARY (TOA PAYOH),626 LORONG 1 TOA PAYOH CHIJ SECONDARY (TOA PAYOH) SINGAPORE 319764,319764,29107.6704288498,34962.2641689572,1.33246079948303,103.843271625083,103.843271625083,CHIJ Secondary (Toa Payoh)
BOON LAY GARDEN PRIMARY SCHOOL,20,BOON LAY DRIVE,BOON LAY GARDEN PRIMARY SCHOOL,20 BOON LAY DRIVE BOON LAY GARDEN PRIMARY SCHOOL SINGAPORE 649930,649930,14641.1027754331,36147.7026988044,1.34317853793318,103.713280889452,103.713280889452,Boon Lay Garden Primary School
MAYFLOWER PRIMARY SCHOOL (JAN 2019 - DEC 2021),6,ANG MO KIO AVENUE 2,MAYFLOWER PRIMARY SCHOOL (JAN 2019 - DEC 2021),6 ANG MO KIO AVENUE 2 MAYFLOWER PRIMARY SCHOOL (JAN 2019 - DEC 2021) SINGAPORE 569948,569948,28276.7353066411,39792.7725521773,1.37614621670476,103.835805246743,103.835805246743,Mayflower Primary School
CONCORD PRIMARY SCHOOL,3,CHOA CHU KANG AVENUE 4,CONCORD PRIMARY SCHOOL,3 CHOA CHU KANG AVENUE 4 CONCORD PRIMARY SCHOOL SINGAPORE 689814,689814,17194.7500582738,40220.0161901619,1.38000806197242,103.736225440727,103.736225440727,Concord Primary School
GEYLANG METHODIST SCHOOL (SECONDARY),2,GEYLANG EAST CENTRAL,GEYLANG METHODIST SCHOOL (SECONDARY),2 GEYLANG EAST CENTRAL GEYLANG METHODIST SCHOOL (SECONDARY) SINGAPORE 389705,389705,33491.3455231488,33324.5040080417,1.31764900474601,103.882661129303,103.882661129303,Geylang Methodist School (Secondary)
MONTFORT SECONDARY SCHOOL,50,HOUGANG AVENUE 8,MONTFORT SECONDARY SCHOOL,50 HOUGANG AVENUE 8 MONTFORT SECONDARY SCHOOL SINGAPORE 538785,538785,34188.6869969647,39551.2492366415,1.37396131656912,103.888928372577,103.888928372577,Montfort Secondary School
BUKIT PANJANG GOVERNMENT HIGH SCHOOL,7,CHOA CHU KANG AVENUE 4,BUKIT PANJANG GOVERNMENT HIGH SCHOOL,7 CHOA CHU KANG AVENUE 4 BUKIT PANJANG GOVERNMENT HIGH SCHOOL SINGAPORE 689809,689809,17432.4458359294,40467.0724023171,1.38224243360043,103.738361221869,103.738361221869,Bukit Panjang Government High School
WOODGROVE SECONDARY SCHOOL,3,WOODLANDS AVENUE 6,WOODGROVE SECONDARY SCHOOL,3 WOODLANDS AVENUE 6 WOODGROVE SECONDARY SCHOOL SINGAPORE 738990,738990,23852.2922348054,45561.7290254179,1.42831828137013,103.79604758539,103.79604758539,Woodgrove Secondary School
KUO CHUAN PRESBYTERIAN SECONDARY SCHOOL,10,BISHAN STREET 13,KUO CHUAN PRESBYTERIAN SECONDARY SCHOOL,10 BISHAN STREET 13 KUO CHUAN PRESBYTERIAN SECONDARY SCHOOL SINGAPORE 579795,579795,30411.0903508216,36920.6091322787,1.35017129930314,103.854983746416,103.854983746416,Kuo Chuan Presbyterian Secondary School
MARYMOUNT CONVENT SCHOOL,20,MARYMOUNT ROAD,MARYMOUNT CONVENT SCHOOL,20 MARYMOUNT ROAD MARYMOUNT CONVENT SCHOOL SINGAPORE 297754,297754,28745.9144793656,35836.4646800403,1.34036676987375,103.840021064426,103.840021064426,Marymount Convent School
WHITE SANDS PRIMARY SCHOOL,2,PASIR RIS STREET 11,WHITE SANDS PRIMARY SCHOOL,2 PASIR RIS STREET 11 WHITE SANDS PRIMARY SCHOOL SINGAPORE 519075,519075,42200.4040547684,38622.2636750303,1.36555714668553,103.960918869319,103.960918869319,White Sands Primary School
RULANG PRIMARY SCHOOL,6,JURONG WEST STREET 52,RULANG PRIMARY SCHOOL,6 JURONG WEST STREET 52 RULANG PRIMARY SCHOOL SINGAPORE 649295,649295,15217.2735802168,36541.3390983045,1.34673868889096,103.718457955487,103.718457955487,Rulang Primary School
SAINT STEPHEN'S SCHOOL,20,SIGLAP VIEW,SAINT STEPHEN'S SCHOOL,20 SIGLAP VIEW SAINT STEPHEN'S SCHOOL SINGAPORE 455789,455789,37341.652827817,33450.7695051655,1.31878997295135,103.917258129598,103.917258129598,St. Stephen's School
XINMIN PRIMARY SCHOOL,9,HOUGANG AVENUE 8,XINMIN PRIMARY SCHOOL,9 HOUGANG AVENUE 8 XINMIN PRIMARY SCHOOL SINGAPORE 538784,538784,33537.9261037428,39267.5186706744,1.37139548941931,103.883080767491,103.883080767491,Xinmin Primary School
SCHOOL OF THE ARTS (SOTA),1,ZUBIR SAID DRIVE,SCHOOL OF THE ARTS (SOTA),1 ZUBIR SAID DRIVE SCHOOL OF THE ARTS (SOTA) SINGAPORE 227968,227968,29710.4144953834,31302.6820281129,1.29936480411316,103.848687419363,103.848687419363,School of the Arts
STAMFORD PRIMARY SCHOOL,1,VICTORIA LANE,STAMFORD PRIMARY SCHOOL,1 VICTORIA LANE STAMFORD PRIMARY SCHOOL SINGAPORE 198423,198423,30685.996679619,31755.1155901849,1.30345638467449,103.857453500579,103.857453500579,Stamford Primary School
EVERGREEN SECONDARY SCHOOL,11,WOODLANDS STREET 83,EVERGREEN SECONDARY SCHOOL,11 WOODLANDS STREET 83 EVERGREEN SECONDARY SCHOOL SINGAPORE 738489,738489,23639.7815383626,47018.3404796105,1.44149131273737,103.794137756171,103.794137756171,Evergreen Secondary School
DAZHONG PRIMARY SCHOOL,35,BUKIT BATOK STREET 31,DAZHONG PRIMARY SCHOOL,35 BUKIT BATOK STREET 31 DAZHONG PRIMARY SCHOOL SINGAPORE 659441,659441,18557.5702323942,37916.8722190689,1.3591797447277,103.74847210784,103.74847210784,Dazhong Primary School
CHIJ SAINT NICHOLAS GIRLS' SCHOOL,501,ANG MO KIO STREET 13,CHIJ SAINT NICHOLAS GIRLS' SCHOOL,501 ANG MO KIO STREET 13 CHIJ SAINT NICHOLAS GIRLS' SCHOOL SINGAPORE 569405,569405,28104.0195931299,39497.6106162649,1.37347687878916,103.834253269436,103.834253269436,CHIJ St. Nicholas Girls' School
CLEMENTI TOWN SECONDARY SCHOOL,10,CLEMENTI AVENUE 3,CLEMENTI TOWN SECONDARY SCHOOL,10 CLEMENTI AVENUE 3 CLEMENTI TOWN SECONDARY SCHOOL SINGAPORE 129904,129904,20065.2210438633,33091.2638894655,1.31553912945073,103.762020598524,103.762020598524,Clementi Town Secondary School
CHIJ OUR LADY OF THE NATIVITY,1257,UPPER SERANGOON ROAD,CHIJ OUR LADY OF THE NATIVITY,1257 UPPER SERANGOON ROAD CHIJ OUR LADY OF THE NATIVITY SINGAPORE 534793,534793,35151.0338091562,39478.4768616967,1.37330297140128,103.897575728303,103.897575728303,CHIJ Our Lady of the Nativity
EDGEFIELD PRIMARY SCHOOL,41,EDGEFIELD PLAINS,EDGEFIELD PRIMARY SCHOOL,41 EDGEFIELD PLAINS EDGEFIELD PRIMARY SCHOOL SINGAPORE 828869,828869,36294.0746121518,42440.6405269764,1.40009139510996,103.907847599114,103.907847599114,Edgefield Primary School
XINMIN SECONDARY SCHOOL,11,HOUGANG AVENUE 8,XINMIN SECONDARY SCHOOL,11 HOUGANG AVENUE 8 XINMIN SECONDARY SCHOOL SINGAPORE 538789,538789,33534.6789847175,39396.1568145063,1.37255884700002,103.88305161385,103.88305161385,Xinmin Secondary School
RIVERSIDE SECONDARY SCHOOL,3,WOODLANDS STREET 81,RIVERSIDE SECONDARY SCHOOL,3 WOODLANDS STREET 81 RIVERSIDE SECONDARY SCHOOL SINGAPORE 738524,738524,22991.0453311065,46975.256819712,1.44110157139127,103.78830823641,103.78830823641,Riverside Secondary School
QUEENSTOWN SECONDARY SCHOOL,1,STRATHMORE ROAD,QUEENSTOWN SECONDARY SCHOOL,1 STRATHMORE ROAD QUEENSTOWN SECONDARY SCHOOL SINGAPORE 148800,148800,25759.9730125098,30656.5376077667,1.29352126774652,103.813190980055,103.813190980055,Queenstown Secondary School
TANGLIN SECONDARY SCHOOL,301,WEST COAST ROAD,TANGLIN SECONDARY SCHOOL,301 WEST COAST ROAD TANGLIN SECONDARY SCHOOL SINGAPORE 127391,127391,19635.3712416776,32445.8021634929,1.30970169234123,103.758158358303,103.758158358303,Tanglin Secondary School
ANGLO-CHINESE SCHOOL (INDEPENDENT),121,DOVER ROAD,ANGLO-CHINESE SCHOOL (INDEPENDENT),121 DOVER ROAD ANGLO-CHINESE SCHOOL (INDEPENDENT) SINGAPORE 139650,139650,22106.5732889464,31782.5550005548,1.30370409257783,103.780363417671,103.780363417671,Anglo-Chinese School (Independent)
CORPORATION PRIMARY SCHOOL,31,JURONG WEST STREET 24,CORPORATION PRIMARY SCHOOL,31 JURONG WEST STREET 24 CORPORATION PRIMARY SCHOOL SINGAPORE 648347,648347,14008.2263862854,37012.3505131546,1.35099779872539,103.707593724342,103.707593724342,Corporation Primary School
UNITY PRIMARY SCHOOL,21,CHOA CHU KANG CRESCENT,UNITY PRIMARY SCHOOL,21 CHOA CHU KANG CRESCENT UNITY PRIMARY SCHOOL SINGAPORE 688268,688268,18374.1775784306,42746.2521210518,1.40285481877246,103.746822625758,103.746822625758,Unity Primary School
ANGLICAN HIGH SCHOOL,600,UPPER CHANGI ROAD,ANGLICAN HIGH SCHOOL,600 UPPER CHANGI ROAD ANGLICAN HIGH SCHOOL SINGAPORE 487012,487012,40078.8166212114,34821.0227393862,1.33118107926966,103.941853465631,103.941853465631,Anglican High School
FERNVALE PRIMARY SCHOOL,1,FERNVALE LANE,FERNVALE PRIMARY SCHOOL,1 FERNVALE LANE FERNVALE PRIMARY SCHOOL SINGAPORE 797701,797701,32576.8849010281,41358.1178030372,1.39030227963797,103.874445458032,103.874445458032,Fernvale Primary School
NAN CHIAU HIGH SCHOOL,20,ANCHORVALE LINK,NAN CHIAU HIGH SCHOOL,20 ANCHORVALE LINK NAN CHIAU HIGH SCHOOL SINGAPORE 545079,545079,34308.3992032008,41191.5774543677,1.38879582498399,103.890004423764,103.890004423764,Nan Chiau High School
WHITLEY SECONDARY SCHOOL,30,BISHAN STREET 24,WHITLEY SECONDARY SCHOOL,30 BISHAN STREET 24 WHITLEY SECONDARY SCHOOL SINGAPORE 579747,579747,29027.6163034551,37460.2926999275,1.35505208480649,103.842552378136,103.842552378136,Whitley Secondary School
HENRY PARK PRIMARY SCHOOL,1,HOLLAND GROVE ROAD,HENRY PARK PRIMARY SCHOOL,1 HOLLAND GROVE ROAD HENRY PARK PRIMARY SCHOOL SINGAPORE 278790,278790,22544.2873791968,33216.9645254761,1.31667646178347,103.784296227747,103.784296227747,Henry Park Primary School
JURONG PRIMARY SCHOOL,320,JURONG EAST STREET 32,JURONG PRIMARY SCHOOL,320 JURONG EAST STREET 32 JURONG PRIMARY SCHOOL SINGAPORE 609476,609476,16853.0771883978,36729.2343872562,1.34843859698946,103.733156566858,103.733156566858,Jurong Primary School
CLEMENTI PRIMARY SCHOOL,8,CLEMENTI AVENUE 3,CLEMENTI PRIMARY SCHOOL,8 CLEMENTI AVENUE 3 CLEMENTI PRIMARY SCHOOL SINGAPORE 129903,129903,20190.2983410172,33038.6364921555,1.31506321827875,103.763144493687,103.763144493687,Clementi Primary School
GAN ENG SENG PRIMARY SCHOOL,100,REDHILL CLOSE,GAN ENG SENG PRIMARY SCHOOL,100 REDHILL CLOSE GAN ENG SENG PRIMARY SCHOOL SINGAPORE 158901,158901,26022.2170935348,29780.10807156,1.28559516494962,103.815547410064,103.815547410064,Gan Eng Seng Primary School
BUKIT BATOK SECONDARY SCHOOL,50,BUKIT BATOK WEST AVENUE 8,BUKIT BATOK SECONDARY SCHOOL,50 BUKIT BATOK WEST AVENUE 8 BUKIT BATOK SECONDARY SCHOOL SINGAPORE 658962,658962,17711.9101901269,36735.00712738,1.34849111079052,103.74087370482,103.74087370482,Bukit Batok Secondary School
SINGAPORE POLYTECHNIC,500,DOVER ROAD,SINGAPORE POLYTECHNIC,500 DOVER ROAD SINGAPORE POLYTECHNIC SINGAPORE 139651,139651,21709.5501442133,32593.6195546705,1.31103899283956,103.776795818359,103.776795818359,Singapore Polytechnic
MERIDIAN PRIMARY SCHOOL,20,PASIR RIS STREET 71,MERIDIAN PRIMARY SCHOOL,20 PASIR RIS STREET 71 MERIDIAN PRIMARY SCHOOL SINGAPORE 518798,518798,39303.5458344575,39724.6885971073,1.37552831658484,103.934889078518,103.934889078518,Meridian Primary School
COMMIT LEARNING SCHOOLHOUSE @ CATHOLIC HIGH SCHOOL (PRIMARY),9,BISHAN STREET 22,COMMIT LEARNING SCHOOLHOUSE @ CATHOLIC HIGH SCHOOL (PRIMARY),9 BISHAN STREET 22 COMMIT LEARNING SCHOOLHOUSE @ CATHOLIC HIGH SCHOOL (PRIMARY) SINGAPORE 579767,579767,29212.1656484166,37386.9490167908,1.35438878373608,103.844210670766,103.844210670766,Catholic High School (Primary)
PARK VIEW PRIMARY SCHOOL,60,PASIR RIS DRIVE 1,PARK VIEW PRIMARY SCHOOL,60 PASIR RIS DRIVE 1 PARK VIEW PRIMARY SCHOOL SINGAPORE 519524,519524,39821.3162899343,39929.5384668726,1.37738069854249,103.939541695654,103.939541695654,Park View Primary School
REGENT SECONDARY SCHOOL,50,CHOA CHU KANG NORTH 5,REGENT SECONDARY SCHOOL,50 CHOA CHU KANG NORTH 5 REGENT SECONDARY SCHOOL SINGAPORE 689621,689621,18842.8552409327,41687.3977799285,1.39327908335682,103.751034411529,103.751034411529,Regent Secondary School
PAYA LEBAR METHODIST GIRLS' SCHOOL (PRIMARY),298,LORONG AH SOO,PAYA LEBAR METHODIST GIRLS' SCHOOL (PRIMARY),298 LORONG AH SOO PAYA LEBAR METHODIST GIRLS' SCHOOL (PRIMARY) SINGAPORE 536741,536741,33748.3760953182,36843.4187818952,1.34947276268396,103.884971343143,103.884971343143,Methodist Girls' School (Primary)
YISHUN SECONDARY SCHOOL,4,YISHUN STREET 71,YISHUN SECONDARY SCHOOL,4 YISHUN STREET 71 YISHUN SECONDARY SCHOOL SINGAPORE 768516,768516,27493.1783263972,45541.2352395374,1.42813324276086,103.828764316679,103.828764316679,Yishun Secondary School
PASIR RIS SECONDARY SCHOOL,390,TAMPINES STREET 21,PASIR RIS SECONDARY SCHOOL,390 TAMPINES STREET 21 PASIR RIS SECONDARY SCHOOL SINGAPORE 529400,529400,40869.8736143373,37369.4000635836,1.35422732653396,103.948962626204,103.948962626204,Pasir Ris Secondary School
HONG WEN SCHOOL,30,TOWNER ROAD,HONG WEN SCHOOL,30 TOWNER ROAD HONG WEN SCHOOL SINGAPORE 327829,327829,30705.4493981982,33779.0355954058,1.32175999964553,103.857628468881,103.857628468881,Hong Wen School
AHMAD IBRAHIM PRIMARY SCHOOL,10,YISHUN STREET 11,AHMAD IBRAHIM PRIMARY SCHOOL,10 YISHUN STREET 11 AHMAD IBRAHIM PRIMARY SCHOOL SINGAPORE 768643,768643,27958.1371433474,46096.2627680488,1.43315271543517,103.832942401086,103.832942401086,Ahmad Ibrahim Primary School
TOWNSVILLE PRIMARY SCHOOL,3,ANG MO KIO AVENUE 10,TOWNSVILLE PRIMARY SCHOOL,3 ANG MO KIO AVENUE 10 TOWNSVILLE PRIMARY SCHOOL SINGAPORE 569730,569730,30282.242298523,38011.0245356523,1.36003263746623,103.853826048327,103.853826048327,Townsville Primary School
MARSILING SECONDARY SCHOOL,12,MARSILING ROAD,MARSILING SECONDARY SCHOOL,12 MARSILING ROAD MARSILING SECONDARY SCHOOL SINGAPORE 739110,739110,21622.2165990025,46482.4188591223,1.43664424769955,103.776008090454,103.776008090454,Marsiling Secondary School
YUAN CHING SECONDARY SCHOOL,103,YUAN CHING ROAD,YUAN CHING SECONDARY SCHOOL,103 YUAN CHING ROAD YUAN CHING SECONDARY SCHOOL SINGAPORE 618654,618654,15488.8783984222,36018.0484284926,1.34200635764467,103.72089870437,103.72089870437,Yuan Ching Secondary School
GREENDALE PRIMARY SCHOOL,50,EDGEDALE PLAINS,GREENDALE PRIMARY SCHOOL,50 EDGEDALE PLAINS GREENDALE PRIMARY SCHOOL SINGAPORE 828848,828848,36793.4333255449,42041.5424514245,1.39648195114256,103.91233462071,103.91233462071,Greendale Primary School
ZHENGHUA PRIMARY SCHOOL,9,FAJAR ROAD,ZHENGHUA PRIMARY SCHOOL,9 FAJAR ROAD ZHENGHUA PRIMARY SCHOOL SINGAPORE 679002,679002,20877.0395431835,40169.1169131137,1.37954887512229,103.769313521752,103.769313521752,Zhenghua Primary School
ADMIRALTY SECONDARY SCHOOL,31,WOODLANDS CRESCENT,ADMIRALTY SECONDARY SCHOOL,31 WOODLANDS CRESCENT ADMIRALTY SECONDARY SCHOOL SINGAPORE 737916,737916,24559.0472937012,47504.7873554379,1.44589068910993,103.802398196596,103.802398196596,Admiralty Secondary School
NORTHOAKS PRIMARY SCHOOL,61,SEMBAWANG DRIVE,NORTHOAKS PRIMARY SCHOOL,61 SEMBAWANG DRIVE NORTHOAKS PRIMARY SCHOOL SINGAPORE 757622,757622,25872.0767556792,48689.8195981402,1.45660782030102,103.814196981329,103.814196981329,Northoaks Primary School
SINGAPORE MANAGEMENT UNIVERSITY (ADMIN BLDG),81,VICTORIA STREET,SINGAPORE MANAGEMENT UNIVERSITY (ADMIN BLDG),81 VICTORIA STREET SINGAPORE MANAGEMENT UNIVERSITY (ADMIN BLDG) SINGAPORE 188065,188065,30102.2194094546,31024.2472393811,1.29684671398423,103.852207943172,103.852207943172,Singapore Management University
NORTH VISTA PRIMARY SCHOOL,20,COMPASSVALE LINK,NORTH VISTA PRIMARY SCHOOL,20 COMPASSVALE LINK NORTH VISTA PRIMARY SCHOOL SINGAPORE 544974,544974,34971.4042828046,40531.0861005448,1.38282243016299,103.895961877928,103.895961877928,North Vista Primary School
GREENDALE SECONDARY SCHOOL,51,EDGEDALE PLAINS,GREENDALE SECONDARY SCHOOL,51 EDGEDALE PLAINS GREENDALE SECONDARY SCHOOL SINGAPORE 828866,828866,36722.8223570501,42094.4224047884,1.39696019936894,103.91170014084,103.91170014084,Greendale Secondary School
SERANGOON GARDEN SECONDARY SCHOOL,21,SERANGOON NORTH AVENUE 1,SERANGOON GARDEN SECONDARY SCHOOL,21 SERANGOON NORTH AVENUE 1 SERANGOON GARDEN SECONDARY SCHOOL SINGAPORE 555889,555889,32000.9924708903,39038.6248832196,1.36932570490947,103.869270301476,103.869270301476,Serangoon Garden Secondary School
PEICAI SECONDARY SCHOOL,10,SERANGOON AVENUE 4,PEICAI SECONDARY SCHOOL,10 SERANGOON AVENUE 4 PEICAI SECONDARY SCHOOL SINGAPORE 556094,556094,32083.411887873,37953.9001634661,1.35951583222214,103.870010749055,103.870010749055,Peicai Secondary School
TECK GHEE PRIMARY SCHOOL,1,ANG MO KIO STREET 32,TECK GHEE PRIMARY SCHOOL,1 ANG MO KIO STREET 32 TECK GHEE PRIMARY SCHOOL SINGAPORE 569299,569299,29962.9602906732,38625.285902936,1.36558782075966,103.850957126982,103.850957126982,Teck Ghee Primary School
"SCHOOL OF SCIENCE AND TECHNOLOGY, SINGAPORE",1,TECHNOLOGY DRIVE,"SCHOOL OF SCIENCE AND TECHNOLOGY, SINGAPORE","1 TECHNOLOGY DRIVE SCHOOL OF SCIENCE AND TECHNOLOGY, SINGAPORE SINGAPORE 138572",138572,21399.6898937989,32802.5152550135,1.31292810600277,103.774011529322,103.774011529322,"School of Science and Technology, Singapore"
FUCHUN SECONDARY SCHOOL,21,WOODLANDS AVENUE 1,FUCHUN SECONDARY SCHOOL,21 WOODLANDS AVENUE 1 FUCHUN SECONDARY SCHOOL SINGAPORE 739062,739062,21802.2213575486,45825.6298548002,1.43070452883799,103.777625748539,103.777625748539,Fuchun Secondary School
CRESCENT GIRLS' SCHOOL,357,TANGLIN ROAD,CRESCENT GIRLS' SCHOOL,357 TANGLIN ROAD CRESCENT GIRLS' SCHOOL SINGAPORE 247961,247961,26244.4775918219,30634.2205088157,1.29331947077104,103.817544461755,103.817544461755,Crescent Girls' School
DUNEARN SECONDARY SCHOOL,21,BUKIT BATOK WEST AVENUE 2,DUNEARN SECONDARY SCHOOL,21 BUKIT BATOK WEST AVENUE 2 DUNEARN SECONDARY SCHOOL SINGAPORE 659204,659204,18140.1430463539,38403.3358936273,1.36357900792871,103.74472109107,103.74472109107,Dunearn Secondary School
FUCHUN PRIMARY SCHOOL,23,WOODLANDS AVENUE 1,FUCHUN PRIMARY SCHOOL,23 WOODLANDS AVENUE 1 FUCHUN PRIMARY SCHOOL SINGAPORE 739063,739063,21865.3411816815,45800.7908879817,1.43047990810126,103.778192944298,103.778192944298,Fuchun Primary School
QUEENSWAY SECONDARY SCHOOL,2A,MARGARET DRIVE,QUEENSWAY SECONDARY SCHOOL,2A MARGARET DRIVE QUEENSWAY SECONDARY SCHOOL SINGAPORE 149295,149295,24537.5928928228,31397.561654076,1.30022271592188,103.802207291625,103.802207291625,Queensway Secondary School
KONG HWA SCHOOL,350,GUILLEMARD ROAD,KONG HWA SCHOOL,350 GUILLEMARD ROAD KONG HWA SCHOOL SINGAPORE 399772,399772,34124.7036575247,32588.943696009,1.31099674009193,103.888352029067,103.888352029067,Kong Hwa School
TEMASEK POLYTECHNIC,21,TAMPINES AVENUE 1,TEMASEK POLYTECHNIC,21 TAMPINES AVENUE 1 TEMASEK POLYTECHNIC SINGAPORE 529757,529757,38895.4499348495,36529.6804763358,1.34663399871377,103.93122088156,103.93122088156,Temasek Polytechnic
ANDERSON PRIMARY SCHOOL,19,ANG MO KIO AVENUE 9,ANDERSON PRIMARY SCHOOL,19 ANG MO KIO AVENUE 9 ANDERSON PRIMARY SCHOOL SINGAPORE 569785,569785,28898.4776482461,40690.4297215287,1.38426429436736,103.841392081119,103.841392081119,Anderson Primary School
DAMAI PRIMARY SCHOOL,52,BEDOK RESERVOIR CRESCENT,DAMAI PRIMARY SCHOOL,52 BEDOK RESERVOIR CRESCENT DAMAI PRIMARY SCHOOL SINGAPORE 479226,479226,37788.0885467725,35294.1912929006,1.33546106800406,103.921270169613,103.921270169613,Damai Primary School
FUHUA SECONDARY SCHOOL,5,JURONG WEST STREET 41,FUHUA SECONDARY SCHOOL,5 JURONG WEST STREET 41 FUHUA SECONDARY SCHOOL SINGAPORE 649410,649410,16114.5930194063,36571.750703603,1.34701408913756,103.72652089832,103.72652089832,Fuhua Secondary School
SINGAPORE SPORTS SCHOOL,1,CHAMPIONS WAY,SINGAPORE SPORTS SCHOOL,1 CHAMPIONS WAY SINGAPORE SPORTS SCHOOL SINGAPORE 737913,737913,23117.4954931987,45350.8892124798,1.42641140556342,103.789444793951,103.789444793951,Singapore Sports School
